{"type":"Topology","arcs":[[[37586,81154],[-323,237],[-129,335],[-498,121],[-380,28]],[[36256,81875],[-146,80],[338,149],[146,241],[224,153],[-180,82],[-17,385],[-80,43],[428,305],[117,429],[260,178],[504,619],[28,265],[-63,231],[-313,478],[631,335],[464,-86],[577,-17],[377,65],[265,177],[-98,202],[76,146],[703,142],[162,-227],[298,-237],[318,-80],[502,59]],[[41777,85992],[-76,-364]],[[41701,85628],[-229,-553],[14,-240],[-329,-600],[105,-264],[448,-371],[-434,-579],[76,-118],[-80,-298],[199,-146],[-275,-253],[-267,-29],[-460,70],[-250,-50],[-438,-269],[-575,-116],[-387,-358],[-918,-156],[-315,-144]],[[37586,81154],[-301,-313],[-273,-532],[-192,-149]],[[36820,80160],[-101,-250],[16,-194],[-222,-238],[65,-188],[385,86],[328,-37],[230,59],[167,-185],[-39,-258],[-415,-451],[300,-308],[468,-31],[251,-164],[437,-116],[32,-434],[723,-194],[632,4],[-388,-296],[-75,-254],[129,-311],[54,-588]],[[39797,75812],[-391,32],[-93,-65],[-714,-25],[-467,-211],[-148,-234],[-251,-20]],[[37733,75289],[38,-553],[97,-55],[-254,-414],[-98,-9]],[[37516,74258],[-313,315],[146,288],[-142,122],[0,178],[-292,189],[39,443],[-215,-79],[-266,56],[-295,-87],[-259,126]],[[35919,75809],[352,328],[35,430],[-123,249],[-104,526],[-124,219],[29,304],[117,387],[271,278],[70,288],[-263,436],[-231,236],[-228,-2],[-412,197],[-77,183],[87,357],[315,354],[337,99],[202,141],[-95,264],[-243,121],[523,155],[-135,297],[34,219]],[[37516,74258],[-488,-464],[-55,-275],[-254,-58],[-215,-236],[60,-185],[-32,-296],[-263,-239],[253,-39],[266,-198],[63,-336],[165,-271],[-51,-107]],[[36965,71554],[-53,-157],[-926,-13]],[[35986,71384],[-165,274],[-553,203],[-85,157],[40,239],[-232,225],[140,302],[-75,294],[-240,164],[171,389],[-203,82],[-40,144],[198,151],[-61,119],[227,139],[90,395],[-166,396],[105,232],[649,265],[133,255]],[[30755,72550],[19,181],[204,14],[286,-162],[-1,-181],[-508,148]],[[36965,71554],[478,-85],[729,-234],[1455,108],[752,-182]],[[40379,71161],[566,-779]],[[40945,70382],[252,-471],[-196,-332],[-287,-102],[-13,-173],[-172,-195],[-174,-33],[-208,-234],[-299,210],[-614,147],[-414,-123]],[[38820,69076],[-786,-96]],[[38034,68980],[-118,280]],[[37916,69260],[-241,-192]],[[37675,69068],[-304,-408],[-283,-45],[-581,-212],[-413,195],[-346,12],[-332,-125],[-40,-147],[-316,-191],[-173,-223],[-474,-33],[-130,-133]],[[34283,67758],[-977,951],[-147,336],[-866,109],[-251,188],[-174,-12],[-215,-325],[-263,-91],[-742,14]],[[30648,68928],[114,175],[-82,187],[-520,598],[-441,-42],[-78,-205],[-410,22],[-158,244],[247,345],[-174,206],[71,358],[149,72],[-92,255],[-147,36],[98,239],[198,177],[-102,258],[156,322],[289,169],[412,50],[244,141],[222,7],[298,-188],[-166,-375],[-1,-240],[223,-138],[429,-70],[409,-360],[130,122],[694,-207],[60,-160],[-138,-137],[79,-242],[495,-190],[458,62],[303,-72],[688,83],[457,119],[326,145],[659,429],[-61,261]],[[31558,72282],[88,-166],[224,-75],[-213,-185],[209,-187],[-216,-167],[-674,443],[186,230],[396,107]],[[85215,24288],[926,-20]],[[86141,24268],[-83,-169]],[[86058,24099],[-52,-455]],[[86006,23644],[195,-245]],[[86201,23399],[180,-98]],[[86381,23301],[-88,-195]],[[86293,23106],[-2,-224]],[[86291,22882],[348,-266]],[[86639,22616],[323,-168]],[[86962,22448],[72,-322]],[[87034,22126],[186,-91]],[[87220,22035],[36,-202]],[[87256,21833],[161,-32]],[[87417,21801],[532,-436]],[[87949,21365],[19,-144]],[[87968,21221],[-325,-60]],[[87643,21161],[-266,-205]],[[87377,20956],[-50,-173]],[[87327,20783],[117,-189],[298,-284]],[[87742,20310],[51,-176]],[[87793,20134],[-40,-559]],[[87753,19575],[164,-199]],[[87917,19376],[91,-273]],[[88008,19103],[-171,-363]],[[87837,18740],[2,-380],[-734,3],[-189,78],[-269,-41],[154,-169],[17,-228]],[[86818,18003],[-625,-1],[-21,-358],[-341,-37]],[[85831,17607],[-685,52],[-95,-269],[-323,-73],[-592,-17]],[[84136,17300],[-136,-242]],[[84000,17058],[-249,-52],[-594,-12],[-303,103],[-138,107],[-361,-129]],[[82355,17075],[-578,255]],[[81777,17330],[17,117],[-340,122],[-72,165],[262,125]],[[81644,17859],[-82,324]],[[81562,18183],[-137,176]],[[81425,18359],[-431,151]],[[80994,18510],[-209,317]],[[80785,18827],[-154,137]],[[80631,18964],[30,152]],[[80661,19116],[-206,56],[-241,223]],[[80214,19395],[-252,271]],[[79962,19666],[-332,75]],[[79630,19741],[-135,258]],[[79495,19999],[-175,135]],[[79320,20134],[-407,445]],[[78913,20579],[23,75]],[[78936,20654],[-174,220]],[[78762,20874],[-5,218]],[[78757,21092],[-227,268]],[[78530,21360],[-276,221]],[[78254,21581],[554,1],[151,98]],[[78959,21680],[45,338],[148,464],[198,193],[-40,126],[128,348],[142,125],[1491,24],[331,260],[-189,103],[106,161],[391,60],[134,255],[261,162],[401,94],[499,-3],[705,66],[55,-117],[630,-44],[820,-7]],[[80323,28456],[332,-47],[498,-285],[284,-499],[-405,-269],[-235,148],[-267,6],[-454,104],[-329,199],[-95,176],[14,228],[355,202],[302,37]],[[78254,21581],[-193,111]],[[78061,21692],[-256,-180]],[[77805,21512],[-213,-28]],[[77592,21484],[-605,184]],[[76987,21668],[-32,-191]],[[76955,21477],[-371,-153]],[[76584,21324],[-61,-177]],[[76523,21147],[-449,-107]],[[76074,21040],[-384,61]],[[75690,21101],[-404,8]],[[75286,21109],[-4,-118]],[[75282,20991],[-185,-168]],[[75097,20823],[-378,74]],[[74719,20897],[-479,-76]],[[74240,20821],[31,-218]],[[74271,20603],[-131,-132]],[[74140,20471],[-734,-71]],[[73406,20400],[-445,-110]],[[72961,20290],[146,-140],[-254,-121]],[[72853,20029],[-38,-117]],[[72815,19912],[228,-218]],[[73043,19694],[292,-62]],[[73335,19632],[-294,-268]],[[73041,19364],[63,-263]],[[73104,19101],[-438,-110]],[[72666,18991],[-584,27]],[[72082,19018],[-338,55]],[[71744,19073],[-107,-144]],[[71637,18929],[-325,-113],[-546,109],[-212,134],[-404,358],[-242,114],[-655,81],[-66,133]],[[69187,19745],[106,135]],[[69293,19880],[266,52]],[[69559,19932],[44,280]],[[69603,20212],[-295,63]],[[69308,20275],[153,167]],[[69461,20442],[259,-41],[216,164],[534,107],[349,289],[359,220],[190,34],[157,166],[260,-38],[391,110],[202,184],[1055,277],[1377,-70],[371,147],[306,58],[265,424],[-102,270]],[[75650,22743],[403,-13],[176,-113],[254,100],[398,-83],[915,35],[236,-98],[306,-398],[135,-417],[486,-76]],[[69117,20899],[-160,-48]],[[68957,20851],[-414,-6]],[[68543,20845],[10,346]],[[68553,21191],[-42,613]],[[68511,21804],[2,708]],[[68513,22512],[86,126],[-57,187]],[[68542,22825],[-16,831]],[[68526,23656],[-29,133]],[[68497,23789],[-1,588],[244,149],[329,299],[94,-128],[312,-83],[362,40],[272,-120],[736,-535],[-17,-174],[372,-198],[-27,-118],[218,-154],[141,-560],[-10,-527],[122,-116],[85,-401],[-869,-563],[-285,-134],[-370,-83],[-301,15],[-607,-168],[-180,81]],[[75650,22743],[152,277],[214,121],[9,406],[233,263],[63,194],[291,92],[464,257],[746,199],[228,-48],[68,-184],[835,-291],[116,-132],[380,13],[506,-92],[4,-106],[373,-104],[453,140],[24,429],[268,190],[-117,108],[20,184],[-203,49],[23,339],[348,166],[-151,166],[253,364],[10,392],[-179,520],[307,197],[682,66],[404,-162],[363,-75],[506,-239],[350,-73],[3,-109],[433,-273],[125,-177],[637,79],[257,100],[213,238],[20,339],[-162,372],[192,443],[183,67]],[[85594,27448],[103,-390]],[[85697,27058],[212,-266]],[[85909,26792],[-142,-123]],[[85767,26669],[70,-141],[-102,-142]],[[85735,26386],[306,-296]],[[86041,26090],[-102,-205]],[[85939,25885],[-50,-346]],[[85889,25539],[41,-718]],[[85930,24821],[-142,-135]],[[85788,24686],[-343,-166]],[[85445,24520],[-230,-232]],[[90288,20679],[-28,-206],[87,-760],[594,-166],[63,-357],[396,-185],[173,-225],[260,-58],[415,389],[472,110],[305,-240],[-232,-193],[375,-275],[-95,-316],[-294,-12],[-88,-383],[-480,-67],[182,-245],[-324,-125],[-53,-192],[170,-143],[-67,-274]],[[92119,16756],[-273,13],[-312,-148],[-403,-106],[-90,-87],[-380,-100],[-172,-193]],[[90489,16135],[-182,117],[-411,-107],[-69,-156],[-345,-96],[-352,-17],[32,134],[-39,635],[-72,109],[167,305],[-144,84],[-2,863],[-2254,-3]],[[87837,18740],[171,363]],[[88008,19103],[-91,273]],[[87753,19575],[40,559]],[[87742,20310],[-370,401]],[[87372,20711],[2916,-32]],[[91365,13848],[-438,447],[57,87],[-63,392],[-100,165],[-416,10],[-91,226],[239,179],[68,294],[271,64],[106,-140],[291,-38],[297,-164],[119,-152],[-157,-179],[-73,-321],[113,-246],[62,-349],[-285,-275]],[[90820,13882],[-215,37],[-238,279],[371,64],[208,-231],[-126,-149]],[[90489,16135],[-339,-157],[-12,-155],[166,-354],[4,-206],[-134,-149],[-243,-98],[-197,-225],[-505,7],[-232,-43],[-490,-340],[-49,-448],[-297,-105],[-38,-150],[-347,-148],[9,-82],[-296,-187],[2,-286],[-188,-200],[114,-281],[39,-452],[552,-170]],[[88008,11906],[130,-182],[-326,-74],[132,-153],[-299,-194]],[[87645,11303],[-130,141]],[[87515,11444],[-294,132],[-199,-6],[-54,-186]],[[86968,11384],[-289,-98],[-58,-144],[-284,0],[-319,-122]],[[86018,11020],[-498,167]],[[85520,11187],[-700,-190],[-262,31],[-100,384],[214,19],[225,118],[-199,169],[-305,122],[-273,283],[-35,304],[-158,37]],[[83927,12464],[246,435],[-195,171],[344,168],[-115,72],[177,196]],[[84384,13506],[379,128],[245,-27],[143,172],[356,143]],[[85507,13922],[286,299],[334,473],[337,29],[-55,353],[54,89]],[[86463,15165],[-651,434]],[[85812,15599],[-55,216],[329,300]],[[86086,16115],[-249,599]],[[85837,16714],[460,111],[-447,333],[-19,449]],[[93220,14971],[173,144],[1379,412],[1165,379],[757,-53],[189,-154],[-3,498],[-56,1079],[-120,456],[-236,566],[493,-45],[-1025,1201],[-609,1060],[106,119]],[[95433,20633],[516,-30]],[[95949,20603],[208,89]],[[96157,20692],[1282,11]],[[97439,20703],[-3,-426]],[[97436,20277],[83,-289],[233,-112],[25,-243],[313,-9],[334,-112],[433,-366],[193,-87],[261,27],[262,-135],[-67,-152],[20,-344],[127,-127],[-60,-247],[254,-166],[149,-265],[-39,-365],[-384,-14],[-98,-140],[86,-148],[-52,-525],[157,-169],[302,48],[31,-155],[-356,-225],[-17,-140],[-299,-30],[-178,-498],[-337,-69],[-152,-282],[-148,-55],[-93,-276],[-523,-149],[-612,84],[-235,-196],[-68,-207],[-254,-61],[76,-159],[346,-144],[238,-164],[-84,-343],[-384,51],[-137,94],[133,251],[-239,130],[-82,169],[-616,264],[-247,-92],[-6,-158],[-190,-164],[187,-238],[761,-568],[-128,-303],[-275,-453],[89,-381],[0,-256],[-169,-106],[25,-297],[111,-182],[-272,-246],[0,-358],[-112,-32],[-493,343],[99,187],[-513,397],[-180,297],[41,368],[-190,366],[292,541],[-188,87],[67,326],[-82,287],[-562,147],[-483,328],[-47,141],[167,312],[-69,176],[-358,173],[-33,102]],[[93220,14971],[-325,101],[-299,221],[91,241],[-196,107],[-7,137],[-366,307],[83,411],[104,130],[-186,130]],[[90288,20679],[948,2],[-3,-94]],[[91233,20587],[241,-193]],[[91474,20394],[104,-20]],[[91578,20374],[208,132]],[[91786,20506],[474,-18]],[[92260,20488],[257,-191]],[[92517,20297],[255,-33]],[[92772,20264],[172,209]],[[92944,20473],[-62,218]],[[92882,20691],[710,-8]],[[93592,20683],[52,-132]],[[93644,20551],[205,-183]],[[93849,20368],[414,-93]],[[94263,20275],[291,156]],[[94554,20431],[411,151]],[[94965,20582],[468,51]],[[88008,11906],[312,86],[108,-120],[299,-109],[114,-212],[332,79],[122,-191],[250,-85],[-67,-309],[386,-210],[200,-273],[168,-391],[303,-278],[139,-199],[135,-375],[-72,-248],[101,-129],[-141,-188],[12,-272],[-167,-323],[-207,-138],[-49,-179],[-271,-139],[-117,-165],[-559,-330],[-497,-403],[-88,-24],[-401,-501],[-447,-351],[-209,-236],[-363,-86],[-549,80],[93,217],[252,63],[395,201],[29,186]],[[87554,6354],[638,646],[254,331]],[[88446,7331],[41,251],[-63,185]],[[88424,7767],[141,185],[93,356],[362,461]],[[89020,8769],[-57,227],[-268,263]],[[88695,9259],[-27,495]],[[88668,9754],[-320,408]],[[88348,10162],[-247,158],[-252,16]],[[87849,10336],[-11,286],[-217,296],[-21,360],[45,25]],[[88203,4860],[-42,161],[235,197],[218,-169],[-65,-279],[-150,-186],[-196,276]],[[86891,4545],[379,261],[239,44],[382,-103],[-36,-279],[-541,-47],[-423,124]],[[83983,13102],[-460,-233]],[[83523,12869],[-570,312]],[[82953,13181],[-1348,59]],[[81605,13240],[-177,294]],[[81428,13534],[190,664]],[[81618,14198],[15,702]],[[81633,14900],[-422,862]],[[81211,15762],[-1211,205]],[[80000,15967],[-31,-1067]],[[79969,14900],[-1313,157]],[[78656,15057],[-576,386]],[[78080,15443],[-151,481]],[[77929,15924],[-1049,44]],[[76880,15968],[308,740]],[[77188,16708],[534,60]],[[77722,16768],[391,454]],[[78113,17222],[442,1234]],[[78555,18456],[646,-179]],[[79201,18277],[1552,-113]],[[80753,18164],[524,-299]],[[81277,17865],[500,-535]],[[82355,17075],[1645,-17]],[[84136,17300],[1682,251],[19,-837]],[[85837,16714],[249,-599]],[[86086,16115],[-274,-516]],[[85812,15599],[651,-434]],[[86463,15165],[-956,-1243]],[[85507,13922],[-1123,-416]],[[84384,13506],[-401,-404]],[[82246,16435],[-457,-250]],[[81789,16185],[-283,-741]],[[81506,15444],[369,-20]],[[81875,15424],[371,1011]],[[77289,16756],[479,373]],[[77768,17129],[-46,-361]],[[77722,16768],[-433,-12]],[[82246,16435],[270,-48],[-10,-541],[-264,72],[-243,81],[-120,-303],[26,-97],[71,-46],[-101,-129]],[[81875,15424],[-369,20]],[[81506,15444],[70,417],[-201,91],[-286,-30],[-94,259],[335,65],[459,-61]],[[81789,16185],[215,197],[242,53]],[[80458,15641],[-185,-188]],[[80273,15453],[-109,120],[-49,11],[-132,91],[26,42],[109,-17],[-26,69],[-92,198]],[[80000,15967],[522,110],[87,-188],[-78,-74],[28,-79],[-101,-95]],[[77303,15885],[-129,13],[-105,-284],[-339,-77],[-132,52],[282,379]],[[76880,15968],[423,-83]],[[78001,15793],[-254,0],[6,143]],[[77753,15936],[176,-12]],[[77929,15924],[72,-131]],[[81086,15482],[-135,-39],[-327,161]],[[80624,15604],[76,145],[74,20],[37,81],[400,-88]],[[81211,15762],[50,-219],[-175,-61]],[[78463,14704],[-183,-4],[-435,159],[-28,145]],[[77817,15004],[-121,190]],[[77696,15194],[161,142],[45,237]],[[77902,15573],[178,-130]],[[78080,15443],[387,-81],[25,-235],[164,-70]],[[78656,15057],[-193,-353]],[[80714,15213],[-382,-284]],[[80332,14929],[-159,169],[-204,37],[30,109],[87,101],[462,-138],[166,6]],[[80508,14633],[-392,-451],[-228,91],[-744,58],[-268,289]],[[78876,14620],[176,-145],[347,1],[44,262],[-488,91],[-113,-171]],[[78842,14658],[-233,104]],[[78609,14762],[215,118],[314,39],[15,33],[-52,76],[306,-28],[171,110],[57,-84],[133,-67],[21,-52],[-230,1],[133,-184],[510,0],[306,-91]],[[80234,14965],[-21,-91]],[[80213,14874],[-244,26]],[[79969,14900],[265,65]],[[84536,11754],[77,-732]],[[84613,11022],[-381,-469],[917,-124],[848,-467],[-100,-1038]],[[85897,8924],[-693,66],[-685,-933]],[[84519,8057],[-497,39],[-517,304],[-1656,16],[-1640,416],[-2232,647],[-681,137]],[[77296,9616],[6,881],[1303,238],[458,-197],[581,263],[-199,985],[1615,203],[736,-321],[780,232],[888,-265],[1072,119]],[[83983,13102],[-56,-638]],[[83927,12464],[609,-710]],[[77296,9616],[-440,-569]],[[76856,9047],[-423,-7],[-1433,595],[-314,391],[-1106,773],[-274,772],[347,509],[-334,572],[113,259],[1831,15]],[[75263,12926],[713,-291]],[[75976,12635],[1394,196]],[[77370,12831],[1062,0]],[[78432,12831],[-71,278]],[[78361,13109],[715,62]],[[79076,13171],[20,415]],[[79096,13586],[554,232]],[[79650,13818],[863,-475]],[[80513,13343],[725,-827]],[[81238,12516],[-85,-331]],[[81153,12185],[871,-91]],[[82024,12094],[247,426]],[[82271,12520],[1252,349]],[[84613,11022],[907,165]],[[85520,11187],[498,-167]],[[86018,11020],[950,364]],[[86968,11384],[547,60]],[[87515,11444],[334,-1108]],[[87849,10336],[499,-174]],[[88348,10162],[320,-408]],[[88668,9754],[27,-495]],[[88695,9259],[325,-490]],[[89020,8769],[-596,-1002]],[[88424,7767],[22,-436]],[[88446,7331],[-892,-977]],[[87554,6354],[-918,-281],[-315,442],[-1070,569],[1215,1141],[-211,627],[-358,72]],[[84519,8057],[-337,-605],[-1529,17],[-1041,182],[-3132,818],[-1624,578]],[[41874,61223],[-278,152],[-13,304],[-336,309],[288,64]],[[41535,62052],[-281,247],[544,3],[120,138],[351,37]],[[42269,62477],[325,120],[459,-107],[260,7],[-134,-588]],[[43179,61909],[238,-76]],[[43417,61833],[-304,-162]],[[43113,61671],[51,-250]],[[43164,61421],[-140,-142]],[[43024,61279],[67,-230],[-353,-156],[-165,-325],[-19,-522]],[[42554,60046],[-455,-89]],[[42099,59957],[42,155]],[[42141,60112],[-473,528]],[[41668,60640],[160,139],[46,444]],[[43166,80530],[-2058,-2694]],[[41108,77836],[-1110,-480]],[[39998,77356],[-3178,2804]],[[36820,80160],[4489,2154]],[[41309,82314],[1857,-1784]],[[39797,75812],[1116,-620]],[[40913,75192],[377,-1365]],[[41290,73827],[-1662,-2484]],[[39628,71343],[-2576,219],[681,3727]],[[37733,75289],[2064,523]],[[47897,76786],[-478,-1483]],[[47419,75303],[-6129,-1476]],[[40913,75192],[6984,1594]],[[47556,77963],[-6448,-127]],[[43166,80530],[3375,51]],[[46541,80581],[1015,-2618]],[[47556,77963],[341,-1177]],[[39797,75812],[201,1544]],[[41309,82314],[283,3024]],[[41592,85338],[5497,-1386]],[[47089,83952],[-548,-3371]],[[91195,28884],[-38,-249],[115,-345]],[[91272,28290],[119,-410],[-232,-565],[-529,-576],[1,-191],[-602,-312],[29,-309],[244,-557],[73,-345],[-1596,-18],[-293,72],[-311,186],[-1814,2],[-437,-131]],[[85924,25136],[-35,403]],[[85889,25539],[50,346]],[[85939,25885],[102,205]],[[86041,26090],[-306,296]],[[85767,26669],[142,123]],[[85909,26792],[-212,266]],[[85594,27448],[301,-386],[434,-236],[620,-21],[945,-85],[760,214],[339,420],[-139,254],[-33,259],[97,110],[-72,243],[-173,158],[42,161],[-274,512],[-132,49],[-172,484]],[[88137,29584],[336,91]],[[88473,29675],[377,-771],[389,372],[-152,99],[89,372]],[[89176,29747],[1517,-223],[443,-266],[59,-374]],[[95949,20603],[-516,30]],[[94965,20582],[-411,-151]],[[94554,20431],[-291,-156]],[[93849,20368],[-205,183]],[[93592,20683],[-710,8]],[[92882,20691],[62,-218]],[[92944,20473],[-172,-209]],[[92772,20264],[-255,33]],[[92517,20297],[-257,191]],[[91786,20506],[-208,-132]],[[91474,20394],[-241,193]],[[87372,20711],[-45,72]],[[87327,20783],[50,173]],[[87377,20956],[266,205]],[[87968,21221],[-19,144]],[[87949,21365],[-532,436]],[[87256,21833],[-36,202]],[[87034,22126],[-72,322]],[[86962,22448],[-323,168]],[[86639,22616],[-348,266]],[[86291,22882],[2,224]],[[86381,23301],[-180,98]],[[86201,23399],[-195,245]],[[86006,23644],[52,455]],[[86058,24099],[83,169]],[[86141,24268],[-926,20]],[[85215,24288],[230,232]],[[85788,24686],[142,135]],[[85930,24821],[-6,315]],[[91272,28290],[875,-558],[461,-570],[39,-524],[103,-576],[523,-341],[218,-459],[666,-658],[-356,-208],[-1,-175],[283,-17],[-114,-427],[674,-572],[334,-101],[158,-173],[-44,-244],[775,-217],[-358,-175],[187,-93],[-292,-131],[128,-125],[471,-210],[253,-230],[-6,-451],[211,-194],[-303,-169]],[[94438,33433],[88,-238],[132,-84],[153,-353],[150,-160],[86,-300],[-67,-178],[209,-31],[304,-357],[-363,-118],[-160,-126],[-994,40],[-440,442],[-234,137],[227,100],[-149,105],[142,261],[497,326],[84,321],[335,213]],[[89605,31840],[-92,42],[168,431],[411,216],[4,-219],[155,-192],[-43,-144],[-326,5],[-277,-139]],[[89772,32505],[-296,-325],[-183,252],[479,73]],[[92597,29938],[-51,-173],[-419,-217],[-932,-664]],[[89176,29747],[162,285],[-434,141],[-390,20],[-165,-135],[124,-383]],[[88137,29584],[-168,278],[-96,308],[-197,318],[-177,429],[31,446],[78,258],[392,164],[-43,170],[680,-242],[45,-110],[515,-12],[403,-146],[251,64],[-219,-558],[111,-166],[377,-162],[441,-28],[504,-122],[41,-103],[284,-85],[234,34],[733,-148],[240,-233]],[[90841,31808],[188,-140],[-139,-129],[-231,192],[182,77]],[[93654,31088],[-2,-259],[-213,-158],[-25,-293],[-517,94],[-167,207],[124,224],[189,8],[-122,633],[441,-132],[44,-275],[248,-49]],[[94107,31405],[247,-9],[147,-160],[-569,14],[175,155]],[[93617,31420],[271,-209],[-359,-80],[88,289]],[[92597,29938],[343,-4],[142,-244],[189,-105],[-546,-66],[-20,-94],[810,-363],[241,-330],[338,-277],[291,-145],[437,83],[397,146],[339,241],[281,-231],[-166,-176],[-64,-254],[39,-227],[-214,-373],[116,-114],[273,-31],[224,-244],[545,-357],[382,-175],[48,-248],[143,-120],[94,-349],[-282,-167],[-167,-244],[-375,-1],[-378,-209],[-52,-297],[-780,-122],[-113,-108],[-323,-75],[-129,-200],[434,-168],[-116,-90],[94,-157],[323,-93],[112,78],[290,-83],[190,190],[496,-37],[309,-136],[449,38],[207,-105],[371,-38],[-40,-194],[-235,-90],[-124,-200],[253,-16],[-42,-246],[-532,-244],[122,-238],[467,-39],[76,-93],[-681,-427],[245,-243],[375,72],[574,248],[123,-434],[-117,-66],[87,-368],[-207,-204],[-148,-367],[165,-145],[-182,-159],[-202,3],[-360,-130]],[[97436,20277],[3,426]],[[97439,20703],[-1282,-11]],[[88610,34048],[249,251],[184,46],[-203,221],[-70,326],[53,158],[332,-23],[0,402],[314,-164],[238,130],[40,324],[345,243],[243,-231],[118,-241],[-144,-372],[-163,-176],[83,-182],[-18,-296],[86,-198],[-187,-74],[201,-193],[98,-251],[204,-205],[29,-201],[-233,-354],[65,-174],[-213,-67],[501,-325],[-60,-197],[-422,-88],[-183,183],[31,301],[-449,213],[-348,326],[151,199],[22,193],[-477,-3],[-298,-117],[-305,259],[186,357]],[[52642,52813],[-448,53],[-331,258],[-918,252],[-244,272],[-169,53],[34,359],[-147,284],[243,197],[168,248],[170,49],[-105,193],[99,79],[536,-280],[173,107],[456,-135],[207,10],[102,167],[410,-231],[-73,-161],[254,-57],[172,78],[262,-78],[211,-185],[-109,-130],[108,-393],[-81,-142],[-536,-206],[-265,-547],[-179,-114]],[[34449,55726],[-155,197],[-395,70],[-61,90],[-556,112],[-586,243],[-90,150],[-7,337],[438,-42],[323,-170],[617,-59],[419,-268],[47,-163],[-158,-211],[351,-113],[-187,-173]],[[34824,56724],[312,-159],[-259,-192],[-343,80],[-29,113],[319,158]],[[40817,54678],[33,-486],[-894,-877],[2104,-616],[1187,-464],[530,-75],[164,-72],[574,-102],[-14,-339],[60,-539],[17,-596],[122,-430],[26,-385],[-123,-923],[-110,-141],[-96,-686],[66,-567],[114,-172],[-35,-519]],[[44542,46689],[-116,98],[-443,126],[-780,3],[-17,134],[-200,140],[259,192],[-526,123],[-269,122],[-352,320],[-284,74],[-376,397],[-198,112],[-53,164],[197,300],[-384,470],[-324,159],[-111,187],[-237,91],[-335,-46],[-158,88],[-52,551],[-113,134],[98,147],[-30,298],[-196,526],[-243,325],[-125,61],[-494,534],[-306,250],[-394,41],[-167,139],[-503,61],[-227,220],[-190,-8],[-236,174],[45,165],[-207,366],[81,108],[-399,188],[-486,-146],[-21,-176],[-432,43],[-356,236],[-119,154],[147,192],[332,179],[702,158],[673,-166],[851,27],[557,-118],[604,17],[934,-169],[1254,224]],[[43091,46692],[311,-235],[-158,-107],[-512,386],[-306,49],[-61,127],[100,285],[324,46],[328,-430],[-26,-121]],[[42307,46551],[-270,211],[205,64],[65,-275]],[[40817,54678],[433,71],[267,-61],[882,-519],[271,-90],[414,89],[354,-47],[587,79],[358,-123],[257,-191],[531,-178],[527,-361],[160,-172],[254,-127],[206,3],[305,-141],[54,-153],[-110,-247],[374,-87],[130,69],[494,-44],[237,-272],[-176,-131],[-375,-123],[-159,-159],[-38,-188],[127,-368],[-159,-212],[119,-345],[-110,-132],[-82,-328],[430,-307],[318,-335],[91,-409],[-267,-56],[-239,-271],[-431,-166],[-242,-17],[-34,-249],[-312,-229],[39,-477],[-304,-29],[20,-272],[157,-147],[-327,-30],[-81,211],[-172,12],[-137,-197],[-548,-41],[-157,-125],[-10,-175],[-201,-192]],[[31826,45407],[-449,147],[-31,239],[-375,152],[19,212],[-396,493],[-383,299],[193,96],[-106,236],[127,147],[447,-48],[-3,-130],[263,-207],[182,35],[454,-96],[396,-177],[141,-215],[455,-126],[584,-303],[182,66],[347,-9],[-64,142],[190,265],[156,-17],[56,-385],[392,-26],[540,-337],[53,-98],[-174,-165],[163,-116],[-503,-179],[-411,144],[-255,-101],[-515,112],[-16,96],[-368,-2],[-30,-129],[-464,-187],[-47,142],[-274,117],[-145,-121],[-331,34]],[[33693,45281],[-590,-61],[-37,135],[627,-74]],[[34339,44736],[-284,-75],[-373,333],[493,254],[307,-38],[43,-263],[-281,-107],[95,-104]],[[32291,44154],[-189,-208],[137,-119],[-550,-415],[-580,19],[-94,265],[248,245],[-338,-17],[-348,623],[-264,219],[63,228],[195,66],[-230,157],[293,59],[425,-182],[176,-222],[417,127],[189,-120],[34,-199],[432,-78],[-278,-232],[31,-149],[231,-67]],[[28852,41976],[111,132],[267,-94],[218,88],[603,66],[-144,205],[395,-19],[2,-327],[-179,-245],[-329,-229],[-190,248],[-159,55],[-259,-131],[-336,251]],[[2589,22732],[-187,63],[33,173],[189,249],[198,132],[-37,364],[101,227],[271,263],[187,78],[144,291],[158,163],[339,118],[-6,151],[438,301],[540,62],[-17,179],[306,154],[464,396],[-28,83],[552,291],[33,131],[373,35],[394,230],[-1,189],[393,224],[424,79],[465,-70],[141,167],[32,206],[157,55],[-14,172],[531,150],[818,445],[420,-56],[164,113],[310,-195],[213,18],[351,329],[416,130],[10,111],[400,52],[-105,202],[273,126],[449,96],[137,383],[127,83],[619,215],[247,234],[343,131],[131,220],[-104,91],[251,159],[188,-71],[349,117],[22,143],[409,252],[277,30],[480,276],[957,685],[-80,123],[409,183],[281,459],[1020,559],[30,-482],[349,23],[-18,146],[244,315],[-172,185],[-76,370],[398,-16],[183,120],[363,-81],[407,58],[232,478],[331,114],[303,300],[-345,8],[-192,75],[343,241],[362,39],[216,-139],[165,68],[317,435],[159,-140],[-45,-236],[149,-142],[514,197],[127,225],[225,48],[144,161],[297,-15],[109,341],[274,110],[268,211],[-7,143],[238,514],[22,239],[-257,208],[-443,-30],[-150,336],[-254,218],[56,330],[227,228],[219,-196],[-150,-294],[559,-297],[637,-142],[338,-222],[111,-225],[327,7],[-159,283],[-70,336],[167,112],[-392,102],[-437,24],[-345,251],[208,220],[-350,-7],[-196,166],[-43,260],[166,165],[188,-229],[260,66],[-368,203],[-16,341],[411,-278],[499,-78],[99,451],[-25,238],[-258,-8],[-52,219],[266,191],[50,152],[-55,455],[206,198],[283,57],[136,140],[-31,288],[356,-131],[4,-396],[288,-91],[155,90],[167,-277],[-137,-457],[-169,-265],[-392,-250],[122,-224],[402,-222],[178,-378],[-493,94],[-290,-158],[65,-404],[-154,-319],[260,-76],[15,-198],[233,-91],[432,148],[251,-153],[-168,-249],[186,-298],[-315,-365],[565,23],[211,-389],[265,-369],[384,-93],[96,-140],[-419,-104],[-247,-194],[-671,-255],[-181,-289],[-509,-61],[-603,78],[-368,-146],[-648,-73],[-132,-157],[-210,0],[-329,-187],[-160,-179],[-363,-247],[-35,-210],[-183,-89],[-17,-301],[-114,-275],[-197,-163],[-520,-135],[-416,-15],[-1073,-162],[-201,-68],[-738,-71],[-317,40],[-297,-58],[-317,-209],[-323,42],[-347,-79],[-174,-219],[7,-323],[313,-237],[7,-477],[-405,6],[22,270],[-456,-23],[81,-376],[209,-150],[438,17],[-14,-128],[-591,-347],[-85,-159],[-358,-154],[-237,-340],[-163,3],[-197,-263],[-172,-45],[-505,-412],[-216,-354],[-334,-201],[-255,-2],[-164,-130],[-477,-212],[-572,-405],[-486,31],[-783,-155],[-1018,-91],[-176,-248],[-27,-313],[-175,-135],[-849,-920],[-415,-55],[-385,-182],[-190,1],[-360,-158],[-348,-288],[-337,-31],[-286,-320],[-388,-168],[-420,-1],[-281,-108],[-519,-75],[-551,115],[-367,-221],[121,-267],[-93,-194],[-252,-195],[-131,-203],[-397,51],[-838,-101],[-1212,-516],[-256,-239],[-389,-245],[-107,-4]],[[28298,40861],[-191,215],[411,78],[-220,-293]],[[27155,40079],[-87,218],[373,124],[340,-27],[1,-166],[-337,-128],[-290,-21]],[[41553,40043],[-75,173],[320,85],[91,-122],[-336,-136]],[[27869,39195],[-373,104],[11,124],[-381,70],[-15,121],[211,173],[418,-14],[43,-319],[181,-74],[-95,-185]],[[24207,38960],[-178,172],[110,183],[271,-89],[-203,-266]],[[42033,38227],[53,104],[574,177],[200,-194],[-229,-75],[67,-198],[-269,-59],[-277,46],[-119,199]],[[29644,35774],[-438,140],[63,260],[-174,337],[306,-9],[546,331],[75,175],[254,-56],[410,-192],[350,43],[457,-51],[-129,-424],[-365,-19],[-276,-131],[37,-197],[-1116,-207]],[[2445,22264],[-145,183],[287,35],[320,152],[404,-55],[-54,-107],[-288,-135],[-524,-73]],[[3581,21834],[-261,151],[87,218],[-11,418],[433,111],[416,-245],[-158,-588],[-506,-65]],[[1817,22011],[-383,50],[-8,144],[381,-34],[10,-160]],[[2388,21608],[-252,17],[-87,178],[466,-17],[-127,-178]],[[825,21128],[-322,121],[347,237],[280,-73],[117,-197],[-422,-88]],[[799,19478],[-270,65],[9,154],[-276,354],[-262,205],[242,115],[-139,326],[447,204],[29,176],[764,86],[89,-188],[-57,-337],[119,-494],[-268,-429],[-427,-237]],[[52717,51269],[129,74],[549,-20],[-76,-223],[-264,-75],[-338,244]],[[49433,50939],[-329,219],[117,102],[314,-26],[108,-102],[-210,-193]],[[52903,50229],[-256,162],[657,152],[-401,-314]],[[52025,46696],[233,-120],[243,319],[-317,133],[-193,2],[-420,342],[168,132],[45,332],[507,122],[257,502],[-71,312],[-182,155],[99,165],[350,137],[379,13],[586,262],[248,-17],[101,-176],[-237,-27],[-90,-127],[87,-164],[-12,-271],[-271,-240],[-49,-451],[-128,-226],[31,-197],[-538,-811],[13,-218],[-449,-410],[-360,194],[-91,120],[61,213]],[[55439,49124],[132,-283],[189,-93],[-1,-232],[-253,-157],[-322,80],[-98,322],[-154,166],[507,197]],[[58014,48529],[544,-97],[393,14],[205,-51],[451,-530],[-58,-206],[-236,-338],[-371,-163],[-389,126],[-339,45],[-118,228],[-263,140],[-773,154],[-191,104],[-109,186],[342,243],[390,102],[242,-35],[280,78]],[[51722,46003],[254,-189],[-40,-207],[-345,66],[-87,254],[218,76]],[[51614,12176],[156,-14],[-156,14]],[[52910,12461],[-75,91],[75,-91]],[[52713,12913],[438,48],[202,-211],[397,27],[73,-261],[353,-85],[165,41],[473,-29],[318,-147],[281,38],[294,-74],[54,-116],[-263,-163],[-551,36],[-374,-94],[-142,-335],[-23,-362],[-140,-73],[-787,-103],[-474,-137],[-1093,-61],[-18,124],[-358,120],[-190,218],[-288,110],[-85,124],[29,337],[-447,56],[-273,88],[-31,197],[210,217],[315,108],[403,-161],[337,112],[13,-146],[-11,-84],[-4,201],[127,-9],[124,45],[-3,80],[402,159],[346,193],[201,-28]],[[48429,11787],[1,251],[-202,156],[-153,240],[86,130],[405,-196],[-129,-192],[-8,-389]],[[52286,12944],[-266,-230],[-253,118],[392,166],[127,-54]],[[78555,18456],[-1805,-321],[-777,-176],[-283,0],[-154,-231],[-331,-184],[-184,-233],[0,-253]],[[75021,17058],[-431,155],[-276,450],[-527,446],[-576,406],[-347,-10],[-156,129],[-487,157],[-431,52],[-153,86]],[[71637,18929],[107,144]],[[72082,19018],[584,-27]],[[73104,19101],[-63,263]],[[73041,19364],[294,268]],[[73043,19694],[-228,218]],[[72815,19912],[38,117]],[[72961,20290],[445,110]],[[74140,20471],[131,132]],[[74271,20603],[-31,218]],[[74240,20821],[479,76]],[[74719,20897],[378,-74]],[[75097,20823],[185,168]],[[75286,21109],[404,-8]],[[75690,21101],[384,-61]],[[76523,21147],[61,177]],[[76584,21324],[371,153]],[[76955,21477],[32,191]],[[76987,21668],[605,-184]],[[77805,21512],[256,180]],[[78061,21692],[469,-332]],[[78530,21360],[227,-268]],[[78757,21092],[5,-218]],[[78762,20874],[174,-220]],[[78913,20579],[407,-445]],[[79320,20134],[175,-135]],[[79495,19999],[135,-258]],[[79630,19741],[332,-75]],[[79962,19666],[252,-271]],[[80661,19116],[-30,-152]],[[80631,18964],[154,-137]],[[80785,18827],[209,-317]],[[80994,18510],[431,-151]],[[81425,18359],[137,-176]],[[81562,18183],[82,-324]],[[81644,17859],[-157,-52],[-60,-74],[-78,8],[-72,124]],[[81277,17865],[-194,21],[-330,278]],[[80753,18164],[-498,-6],[-203,57],[-851,62]],[[38902,10772],[-311,137],[440,127],[5,-242],[-134,-22]],[[37199,9810],[-273,136],[277,233],[70,263],[157,204],[466,112],[-134,-294],[-114,-580],[-449,-74]],[[38530,10057],[-302,-178],[-131,103],[227,156],[206,-81]],[[36250,9155],[-266,106],[109,97],[297,38],[86,-93],[-226,-148]],[[50726,9246],[58,-192],[-346,67],[288,125]],[[49905,8899],[585,-323],[465,-124],[439,84],[45,-91],[-553,-121],[-525,188],[-507,306],[51,81]],[[44964,7465],[-48,78],[-483,216],[118,69],[-506,212],[-138,-112],[-407,-55],[-89,-82],[-780,-153],[-236,218],[-318,-2],[-661,-196],[-638,183],[-70,211],[239,294],[224,141],[679,123],[451,280],[635,-26],[343,28],[336,-78],[528,-501],[773,138],[490,-107],[215,53],[482,-2],[250,-88],[67,-232],[-427,-131],[-752,-305],[-277,-174]],[[49209,8322],[-245,-57],[214,408],[352,-148],[-321,-203]],[[45957,8544],[332,142],[196,-90],[-48,-167],[-422,13],[-58,102]],[[48008,8206],[185,-167],[-283,-118],[-110,136],[208,149]],[[43390,7146],[141,259],[495,-85],[151,-168],[-161,-118],[-433,-61],[-193,173]],[[40781,6543],[59,196],[263,109],[205,-82],[37,-174],[-458,-148],[-106,99]],[[39896,6294],[89,173],[343,76],[543,-103],[-273,-168],[-702,22]],[[40174,5676],[298,138],[176,-41],[419,-295],[-320,-276],[-208,-35],[-413,238],[48,271]],[[39655,5217],[-280,136],[209,260],[458,18],[-36,-198],[-351,-216]],[[39956,5047],[-288,56],[162,213],[151,-4],[-25,-265]],[[16494,14289],[-515,21],[-48,98],[-543,48],[-138,164],[402,115],[206,-45],[268,122],[257,-56],[-95,-316],[206,-151]],[[29717,2915],[279,195],[507,17],[177,110],[366,78],[188,216],[212,84],[386,-32],[611,282],[1044,419],[346,27],[123,-135],[-68,-154],[367,-119],[50,-163],[-159,-455],[-222,-218],[-328,-103],[-214,101],[179,179],[-553,123],[-364,-282],[-619,176],[-317,-216],[-446,-413],[-421,46],[-275,-111],[-341,-29],[-229,-91],[-192,55],[53,330],[-140,83]],[[34436,3224],[-248,108],[282,406],[493,-317],[-224,-137],[-303,-60]],[[34968,2893],[-7,-96],[-378,-131],[-37,140],[422,87]],[[29075,2367],[-52,150],[306,283],[333,77],[12,-238],[104,-107],[-335,-119],[-368,-46]],[[31610,1866],[-15,325],[242,53],[-62,-323],[-165,-55]],[[29484,1623],[327,63],[302,-182],[35,-179],[-509,-68],[-155,366]],[[26028,0],[92,505],[16,353],[-202,556],[225,113],[291,-430],[94,-521],[-299,-503],[-217,-73]],[[25471,110],[44,346],[-174,121],[329,119],[-103,-444],[-96,-142]],[[77289,16756],[-101,-48]],[[77188,16708],[-200,-361],[-108,-379]],[[77303,15885],[113,-3],[190,35],[74,55],[73,-36]],[[78001,15793],[68,-57],[-167,-163]],[[77696,15194],[-133,-133]],[[77563,15061],[-126,-180],[-544,-366],[-277,54],[-352,-106],[-882,-145],[-365,-280],[-444,80],[-213,-515],[44,-655]],[[74404,12948],[-924,-19],[-109,238],[-535,71],[-235,159],[203,263],[-164,297],[143,122],[-9,209],[264,234],[-26,122],[205,180],[251,332],[317,254],[492,35],[443,149],[141,250],[236,230],[137,-14],[98,361],[-18,209],[429,32],[44,125],[-116,236],[-650,35]],[[78555,18456],[-384,-822],[-58,-412]],[[78113,17222],[-345,-93]],[[73574,16721],[-24,-273],[-312,36],[336,237]],[[80458,15641],[166,-37]],[[81086,15482],[259,-145],[-263,-356],[551,-81]],[[81633,14900],[-34,-113],[19,-589]],[[81618,14198],[-210,-2],[6,-411],[244,-141],[-230,-110]],[[81428,13534],[-13,-154],[190,-140]],[[81605,13240],[687,13],[661,-72]],[[82953,13181],[-67,-168],[128,-126],[258,-61],[251,43]],[[83523,12869],[-10,-137],[-389,-12],[-853,-200]],[[82271,12520],[157,-134],[-226,-80],[-122,1],[-56,-213]],[[82024,12094],[-443,26],[-359,-42],[-69,107]],[[81153,12185],[85,331]],[[81238,12516],[-176,310],[-84,-2],[-194,130],[-271,389]],[[80513,13343],[-274,-41],[-223,316],[-24,85],[-342,115]],[[79650,13818],[-554,-232]],[[79096,13586],[57,-249],[-77,-166]],[[79076,13171],[-715,-62]],[[78361,13109],[71,-278]],[[78432,12831],[-1062,0]],[[75976,12635],[-28,246],[-296,127],[-200,-140],[-189,58]],[[75263,12926],[-859,22]],[[77563,15061],[254,-57]],[[78463,14704],[146,58]],[[78842,14658],[34,-38]],[[80508,14633],[-295,241]],[[80234,14965],[98,-36]],[[80714,15213],[-441,240]],[[50334,99086],[-208,206],[336,239],[225,402],[237,66],[211,-99],[-243,-424],[-31,-171],[-527,-219]],[[51498,97031],[125,331],[190,40],[310,345],[284,111],[338,-133],[-511,-185],[-247,-157],[189,-181],[-315,-214],[-363,43]],[[50911,96442],[-185,169],[43,418],[267,-90],[190,-170],[-56,-174],[-259,-153]],[[51958,91595],[-621,260],[-38,193],[494,38],[267,115],[222,-108],[-4,-326],[-320,-172]],[[47318,90164],[-450,138],[-609,102],[-199,110],[8,171],[-312,139],[478,261],[773,-132],[348,102],[147,-245],[-67,-189],[174,-308],[-291,-149]],[[44494,88734],[-411,291],[-36,226],[154,284],[217,84],[167,-325],[64,-462],[-155,-98]],[[50884,87494],[-182,51],[-125,250],[467,204],[-210,211],[202,117],[-25,172],[299,164],[495,3],[205,-174],[293,-91],[-386,-317],[-669,-241],[-139,-256],[-225,-93]],[[45296,87665],[-426,112],[104,166],[280,-45],[336,86],[729,89],[665,-204],[-273,-106],[-820,-34],[-595,-64]],[[54167,79910],[-1312,-88],[-1568,-248],[-772,7],[-675,-132],[-531,-51],[-586,-8]],[[48723,79390],[-220,174],[-821,321],[-519,65],[-119,347],[-195,155],[-173,-70],[-133,64],[-88,360],[-146,207],[-268,188],[-306,68],[-385,-2],[27,265],[236,199],[109,266],[-438,299],[172,126],[157,293],[182,142],[656,-162],[337,87],[88,471],[135,116],[78,583]],[[47089,83952],[-257,285],[161,132],[-666,107],[-140,107],[-867,286],[-342,8],[-381,249],[-231,47],[-46,396],[-561,133],[-123,134],[-980,-28],[-193,-68],[-413,-384],[-458,-18]],[[41592,85338],[109,290]],[[41777,85992],[-39,79],[670,208],[293,-50],[329,117],[657,-24],[371,-84],[1211,-541],[1428,-377],[874,-344],[729,-202],[157,-127],[232,47],[2157,-461],[845,-109],[801,131],[432,209],[106,130],[712,281],[-75,220],[242,361],[-14,153],[798,96],[159,-66],[98,-378],[294,-212],[170,-29],[280,-202],[177,-434],[-178,-381],[-135,-41],[-207,-250],[-246,-183],[-494,-115],[-353,-217],[-176,-279],[100,-240],[145,-101],[-114,-290],[39,-294],[-161,-236],[29,-203],[-163,-68],[-132,-227],[46,-403],[250,-241],[-54,-539],[100,-166]],[[53757,86071],[212,-33],[-79,-274],[-226,54],[-83,163],[176,90]],[[54167,79910],[227,-516],[206,-281],[310,-286],[11,-267],[432,-168],[692,-22],[197,105],[210,-184],[475,-216],[44,-147],[-221,-58],[-23,-388],[-96,-130],[79,-201],[410,-146],[228,10],[361,128],[51,-285],[-102,-328],[-231,-106],[-236,-334],[112,-93],[-153,-207],[-19,-271],[-287,-263],[21,-212],[-153,-62],[-151,-236],[-480,-441],[-616,-776],[-227,-168],[-265,-52],[-209,-199],[-169,-26]],[[54595,73084],[-1610,182]],[[52985,73266],[-425,48],[-558,-199],[-793,-220],[-898,-195],[-576,-151],[-890,616],[-347,347],[-732,493],[-920,77],[-210,-44]],[[46636,74038],[-409,31],[-369,697],[-331,9]],[[45527,74775],[160,186],[678,209],[617,114],[437,19]],[[47419,75303],[486,436],[-78,617],[112,195],[-105,880],[-127,81],[-43,423],[-153,62],[88,261],[220,205],[230,19],[248,420],[226,61],[200,427]],[[46636,74038],[-475,-168],[-157,-621],[-279,-50],[198,-293],[240,-99],[503,-43],[-119,-276],[866,-274],[-556,-421],[-363,-104],[-126,-139],[-374,-188],[-367,-27],[-501,79],[276,-319],[-409,-58],[371,-339],[441,-167],[-256,-276],[1032,-527],[240,-62]],[[46821,69666],[78,-246]],[[46899,69420],[-1008,-341],[-581,-167]],[[45310,68912],[-122,-139],[-265,-92]],[[44923,68681],[-894,957]],[[44029,69638],[-63,162],[44,305],[-73,458],[-112,113],[-567,144],[-328,4],[-415,148],[-507,-9],[-113,-66],[-496,48],[-720,-91]],[[40679,70854],[-300,307]],[[40379,71161],[-751,182]],[[39628,71343],[322,660],[293,92],[178,-2],[454,721],[-64,428],[220,556],[259,29]],[[41290,73827],[187,-129],[375,-60],[538,250],[377,110],[347,17],[310,88],[635,-35],[406,93],[241,-15],[299,213],[282,93],[-11,103],[251,220]],[[52985,73266],[-948,-674],[-764,-608],[-493,-325],[-2246,-1145]],[[48534,70514],[-1037,-581]],[[47497,69933],[-562,-247]],[[46935,69686],[-114,-20]],[[37405,62833],[-80,-583],[389,-514],[34,-331],[217,-346],[3,-341],[-335,-287],[-231,-59],[-700,68],[-218,-75],[-213,155],[-583,85],[-142,399],[157,82],[-73,189],[103,120],[-257,234],[-550,2],[-234,181],[-457,228],[22,209],[289,79]],[[34546,62328],[840,233],[-198,254],[10,244],[678,176],[167,177],[399,42]],[[36442,63454],[156,-10],[307,-358],[248,-180],[252,-73]],[[45253,65169],[78,-509],[292,-742]],[[45623,63918],[-100,-303],[19,-376]],[[45542,63239],[-101,-319]],[[45441,62920],[-801,-34],[-349,24],[-116,-94]],[[44175,62816],[-443,34]],[[43732,62850],[-630,-326],[-792,65],[-41,-112]],[[41535,62052],[-359,115],[-156,-55],[-499,155],[-363,192],[-528,27],[-198,-35],[-650,74]],[[38782,62525],[112,370],[244,263],[42,231],[181,125],[303,-40],[1105,356],[-10,159],[318,92],[53,177],[-117,213],[317,20],[150,295],[-275,114],[77,377]],[[41282,65277],[590,67],[199,116],[723,139],[728,24],[424,-40],[213,-280],[460,-115],[634,-19]],[[44969,68602],[971,-1665],[-209,-482],[-190,-149],[143,-229],[-206,-310],[-225,-598]],[[41282,65277],[-261,-16],[-136,-176],[-258,-55],[-282,156],[-498,70],[-225,237],[-342,37],[-12,123]],[[39268,65653],[223,261],[-179,88],[35,296],[213,224],[-193,205],[17,335],[-253,279],[216,423],[-465,-5],[-407,275],[-302,425],[-139,521]],[[38034,68980],[786,96]],[[40945,70382],[-266,472]],[[44029,69638],[894,-957]],[[44923,68681],[46,-79]],[[38782,62525],[-362,-18],[-515,294],[-500,32]],[[36442,63454],[-141,243],[-277,183],[14,318],[-160,201],[-433,210],[-93,166],[120,198]],[[35472,64973],[525,88],[227,122],[559,150],[287,7],[266,173],[473,71],[407,-40],[366,113],[336,-91],[350,87]],[[35472,64973],[-326,420],[-558,337],[-1212,446],[75,473],[172,480],[352,371],[424,134],[-116,124]],[[37675,69068],[241,192]],[[34546,62328],[-211,158],[272,224],[-609,476],[-183,-22],[79,-403],[-124,-70],[-142,-290],[-426,34],[-182,120],[-490,68],[197,128],[-192,281],[-308,251],[100,769],[-45,271],[-309,787],[-199,303],[59,162],[-541,390],[36,97],[-330,235],[-346,159],[-125,148],[252,79],[-152,209],[498,28],[142,136],[-224,333],[-228,157],[-23,262],[167,250],[4,174],[-383,104],[-270,151],[416,114],[-78,327]],[[44969,68602],[341,310]],[[46899,69420],[36,266]],[[47497,69933],[1037,581]],[[54595,73084],[167,-98],[-322,-186],[10,-115],[291,-123],[-34,-237],[-353,-143],[-114,-186],[293,-199],[-51,-210],[-623,-276],[-376,-268],[-361,-168],[-20,-184],[-390,-260],[-396,-42],[409,421],[290,110],[336,259],[10,204],[234,60],[225,260],[-566,15],[-220,-216],[43,-204],[-313,-100],[-172,35],[-395,-145],[-161,-126],[-313,-64],[-307,18],[-474,-80],[-260,-159],[-242,-23],[-349,-149],[-222,84],[-420,-217],[-542,-219],[-125,-201],[-277,-46],[-266,-188],[-212,-44],[-265,-188],[-68,-224],[39,-312],[133,-262],[748,-120],[5,-251],[-270,-4],[61,-310],[-215,-93],[-557,-411],[-123,-187],[-392,-152],[-45,-362],[-159,-283],[-175,-29],[-317,-253],[-232,83],[-187,-120],[-125,-268],[79,-195],[376,-435],[-92,-227]],[[46246,65071],[-139,-476]],[[46107,64595],[-214,-62]],[[45893,64533],[-234,-370]],[[45659,64163],[-36,-245]],[[42942,55102],[84,-201],[-235,-43],[-224,159],[375,85]],[[40272,55833],[103,-95],[454,-108],[508,3],[88,-144],[-405,-47],[-630,170],[-118,221]],[[38068,59123],[332,-95],[430,-272],[71,-138],[726,-31],[-12,-97],[543,-105],[256,-148],[495,66],[102,-66],[678,135],[128,132],[264,10],[311,186]],[[42392,58700],[613,28],[1029,-156],[115,-133],[110,-512],[331,-261],[-17,-129]],[[44573,57537],[-67,-356],[327,-172],[792,-96],[719,-115],[405,-159]],[[46749,56639],[-189,-163],[-62,-192],[221,-367],[144,-118],[-518,-164],[-270,97],[-683,-233],[-319,-201],[-380,-11],[-257,175],[-266,-7],[-288,114],[-1057,-162],[-436,104],[186,215],[69,343],[-227,227],[-271,99],[-361,20],[-144,-62],[-478,-446],[-222,-74],[-241,174],[580,395],[-270,250],[123,47],[-8,279],[-361,178],[-921,162],[-505,51],[-344,-90],[-103,-192],[255,-199],[-70,-110],[-542,114],[-83,-173],[216,-259],[-246,-102],[-314,238],[-46,342],[77,176],[-93,405],[165,146],[-145,140],[72,351],[-93,336],[-368,82],[144,141],[-60,369],[308,39]],[[42189,59936],[463,-180],[-24,-142],[-202,-177],[141,-339],[-218,-82],[-187,-247],[230,-69]],[[38068,59123],[63,283],[331,76],[492,40],[293,194],[377,95],[154,130],[901,479],[162,193],[332,-32],[495,59]],[[41668,60640],[473,-528]],[[42099,59957],[90,-21]],[[42189,59936],[365,110]],[[42554,60046],[408,-84],[370,-326],[423,-260],[204,-240],[-43,-222],[304,-48],[260,120],[280,-50],[409,83],[90,121],[387,226],[512,178],[368,73],[37,228],[326,-63],[34,278],[-260,157],[-399,-117],[-303,-250]],[[45961,59850],[-117,230],[-77,630],[200,336],[407,63],[300,173],[17,158]],[[46691,61440],[307,-238],[5,-130],[501,-17],[217,-251],[-273,-143],[475,-437],[396,-628],[272,-43],[-171,-339],[-290,-221],[7,-237],[-637,17],[-182,-384],[-341,-227],[-494,-8],[-254,-170],[-576,-147],[-222,-163],[-338,-86],[-520,-51]],[[46691,61440],[-96,168],[-382,104],[-1,315],[-250,31],[-277,169],[-258,405],[14,288]],[[45441,62920],[101,319]],[[45659,64163],[234,370]],[[46107,64595],[139,476]],[[46246,65071],[94,210],[661,-227],[157,-372],[37,-291],[284,-235],[411,-422],[154,-471],[310,-213],[-98,-175],[324,-254],[260,-66],[531,-306],[-100,-150],[-686,-210],[-235,47],[-27,-471],[104,-60],[52,-412],[261,-389],[149,-420],[195,-80],[472,-326],[59,-373],[256,-113],[-52,-247],[-217,-216],[173,-166],[782,-395],[231,-57],[380,-192],[248,-188],[396,-140],[486,-76],[446,-176],[791,-131],[263,-84],[479,22],[498,-132],[169,239],[-563,211],[118,101],[618,-88],[189,-75],[245,91],[-136,117],[152,123],[-832,406],[-373,106],[-281,287],[452,266],[443,117],[-31,207],[246,59],[-5,-238],[-118,-206],[77,-303],[457,38],[-132,-361]],[[55470,58211],[285,-61]],[[55755,58150],[370,1]],[[56125,58151],[225,23],[256,148]],[[56606,58322],[395,275]],[[57001,58597],[56,93],[900,-207]],[[57957,58483],[1063,-288]],[[59020,58195],[797,-169]],[[59817,58026],[766,-179]],[[60583,57847],[-1318,-189]],[[59265,57658],[-467,-94]],[[58798,57564],[-701,-126]],[[58097,57438],[-481,-125],[-381,42],[-185,-178],[355,-352],[143,-24],[226,-617],[-288,-65],[-133,-214],[224,-192],[-56,-126],[313,-211],[1110,-524],[-346,-44],[18,-118],[423,-287],[345,-480],[4,-637],[144,-47],[114,-274],[-458,-94],[-370,-228],[-241,-58],[-354,103],[-262,248],[-374,171],[119,65],[-32,209],[112,113],[-65,252],[-451,434],[-615,395],[-129,246],[-321,138],[-419,109],[-78,163],[-572,101],[-610,-26],[-127,281],[-218,133],[-136,192],[-243,126],[-58,149],[-434,219],[-354,-33],[-506,210],[-270,-18],[-74,208],[-864,140],[-73,173],[-272,-20],[-492,162],[72,173],[-455,23],[-118,102],[-473,55],[-140,-46],[-70,-277],[-155,32],[-706,-180],[-239,-16],[-364,-123],[-595,-114],[-413,-218]],[[51702,64303],[649,-89],[521,-250],[-419,-109],[-167,-175],[208,-40],[92,-195],[-565,-121],[21,-200],[214,-192],[363,-175],[134,-563],[-268,-263],[-629,-285],[-344,60],[-141,253],[3,167],[331,4],[14,137],[-253,414],[-348,243],[-60,256],[-245,221],[-301,150],[-192,-6],[124,283],[246,356],[559,-56],[453,175]],[[54550,62968],[-131,-227],[389,-119],[271,-18],[-29,-349],[-300,147],[-393,79],[-571,215],[-313,51],[-100,158],[382,-24],[360,69],[435,18]],[[56555,62296],[269,-126],[-86,-162],[-1032,-77],[-121,90],[240,134],[267,6],[463,135]],[[50577,59655],[231,-121],[-174,-167],[-254,70],[-18,149],[215,69]],[[51646,59220],[953,-513],[579,-239],[521,-166],[120,-123],[477,-260],[-193,-155],[-552,164],[-242,155],[-349,91],[-190,144],[-538,131],[-751,524],[165,247]],[[50116,57016],[-438,123],[173,270],[336,-45],[-71,-348]],[[45961,59850],[-287,-59],[-394,-255],[-102,243],[350,526],[-141,305],[-523,262],[-340,-5],[-221,-177],[24,-160],[-237,-35],[-156,252],[-487,328],[-319,59],[-104,145]],[[43164,61421],[-51,250]],[[43113,61671],[304,162]],[[43417,61833],[-238,76]],[[43179,61909],[132,232],[-68,131],[2,121],[144,166],[-179,16],[228,139],[294,136]],[[43732,62850],[443,-34]],[[44413,60245],[148,-562],[-197,0],[-116,222],[165,340]],[[68958,54813],[237,-190],[518,-78],[252,-196],[382,-491],[64,-217],[634,-222],[193,-189],[242,-9],[133,-252],[-730,85],[-261,-212],[-56,-364],[304,-165],[-344,-171],[42,-165],[389,-109],[683,414],[199,186],[301,-29],[189,-108]],[[72329,52331],[25,-117],[-141,-291],[-203,-107],[-380,19],[-555,-134],[-394,-203],[-224,66],[-120,183],[-204,83],[-881,-182],[-97,78],[-748,8],[-579,-145],[-102,-77]],[[67726,51512],[-359,240],[-412,115],[-914,-241],[-314,356],[-6,509],[400,317],[-357,340],[-120,33]],[[65644,53181],[41,68],[699,229]],[[66384,53478],[259,-6],[-47,197]],[[66596,53669],[265,-18],[353,176],[632,-7],[-1,-107],[640,62],[165,66],[171,350],[-70,163],[-371,231],[2,191],[576,37]],[[70658,54101],[540,-121],[250,-152],[-319,-45],[-382,206],[-89,112]],[[71541,53772],[576,-90],[235,-114],[-251,-105],[-189,-201],[191,-133],[-319,-124],[-250,234],[15,252],[-118,177],[110,104]],[[72850,53385],[1009,-124],[-111,-195],[-259,-132],[-388,21],[-181,91],[-273,-31],[-406,177],[-32,160],[641,33]],[[74432,53042],[810,-176],[118,-173],[-404,-40],[-355,87],[-489,16],[-165,139],[485,147]],[[63360,56759],[-1074,498],[-294,24],[-380,261],[-403,76],[-626,229]],[[60583,57847],[-766,179]],[[59817,58026],[-797,169]],[[59020,58195],[-1063,288]],[[57001,58597],[-395,-275]],[[56125,58151],[-370,-1]],[[55470,58211],[128,195],[365,56],[61,142],[-159,118],[8,180],[438,180],[-201,199],[605,398],[698,114],[237,97],[298,-26],[616,-132],[178,-174],[509,60],[43,226],[462,20],[249,-177],[148,102],[245,-50],[174,-234],[367,26],[378,-94],[247,-214],[292,-93],[-17,-143],[245,-47],[163,-171],[263,-91],[244,-206],[400,-84],[77,-203],[-190,-51],[19,-180],[257,-229],[233,-46],[158,-611],[-255,-70],[-93,-239]],[[71202,57629],[138,-15],[94,-478],[-272,69],[40,424]],[[69403,57629],[349,-171],[-547,-270],[-298,165],[496,276]],[[66596,53669],[-216,131],[-260,-194],[264,-128]],[[65644,53181],[-443,198],[-43,141],[-296,271],[-52,379],[-458,231],[-1219,281],[-391,133],[-288,2],[-125,110],[-755,216],[-661,405],[100,179],[290,118],[-323,287],[-531,173],[-490,296],[-552,89],[-372,105],[-82,206],[-220,117],[-444,44],[-192,276]],[[58798,57564],[467,94]],[[63360,56759],[-112,-102],[-24,-291],[699,-284],[1183,7],[487,132],[400,232],[86,194],[-160,246],[-225,200],[240,241],[-255,13],[-337,197],[-208,22],[-36,209],[287,146],[543,121],[71,165],[454,13],[-109,-392],[439,15],[222,-171],[53,-318],[318,-85],[59,271],[653,-279],[401,16],[486,-168],[998,-63],[34,177],[321,-85],[222,-190],[605,-242],[311,-82],[256,58],[169,-133],[344,-75],[240,22],[105,-247],[-159,-122],[-415,-55],[-224,70],[-499,-280],[-247,-27],[-572,127],[-297,0],[-464,77],[-160,-85],[-734,138],[-218,-151],[-283,-415],[100,-262],[-187,-120],[86,-111],[312,24],[339,-244]],[[75223,58380],[93,-131],[352,-183],[313,-315],[28,-243],[400,-302],[147,167],[199,-171],[315,-102],[324,-213],[-166,-119],[143,-170],[-128,-261],[62,-115],[-199,-133],[10,-232],[226,-44],[-17,-149],[-487,-16],[-210,-110],[87,-214],[-75,-203],[-323,100],[-392,44],[-276,-33],[-355,-176],[-31,-270],[-259,28],[-388,204],[-107,115],[-428,147],[-280,37],[-461,372],[410,178],[275,44],[323,320],[149,281],[15,353],[-68,178],[138,101],[33,224],[-190,214],[109,262],[-109,286],[426,-55],[372,305]],[[76466,57682],[294,-219],[-289,-63],[-179,118],[174,164]],[[66715,49690],[-280,25],[-471,336],[-221,301],[-282,186],[-677,84],[-249,228],[-273,146],[-275,49],[-576,402],[-17,127],[-809,48],[-356,157],[-85,141],[146,221],[-299,138],[485,122],[154,147],[266,-125],[300,-2],[380,-339],[265,-323],[293,-141],[458,-546],[532,-38],[481,-142],[98,-421],[224,-239],[197,-58],[495,-335],[96,-149]],[[68962,49577],[241,114],[380,-302],[194,-9],[466,-178],[157,-372],[306,-382],[-53,-67],[365,-680],[-124,-201],[-1081,776],[-355,420],[-153,59],[-257,361],[-152,28],[-133,226],[303,20],[-104,187]],[[73744,43679],[-375,198],[-179,220],[-331,216],[-613,269],[-829,266],[-730,107],[-481,30],[-81,137],[169,194],[-279,194],[-500,160],[-143,171],[-291,140],[-231,318],[-271,228],[-335,193],[-456,23],[-632,-104],[-88,-119],[-642,-502],[-220,-32],[-347,-405],[-362,-125],[-260,-250],[-325,-108],[-324,-234],[-202,-40],[-166,186],[540,559],[99,360],[481,400],[314,129],[-150,93],[184,208],[-246,166],[-352,-179],[0,385],[405,337],[-18,199],[233,341],[-180,224],[-154,-29],[-57,422],[-164,422],[116,66],[409,-165],[205,32],[586,-237],[-84,-138],[229,-60],[293,88],[416,-34],[824,-379],[326,43],[172,-323],[223,-87],[-75,-164],[139,-89],[269,147],[321,-241],[167,48],[256,-106],[493,-484],[380,-162],[285,110],[151,-49],[311,-253],[293,153],[317,-247],[391,-429],[202,-104],[382,-430],[218,-123],[-179,-273],[186,-119],[95,-213],[341,-331],[-147,-295],[180,-355],[-102,-165]],[[72329,52331],[220,-92],[455,-85],[313,-248],[432,-113],[78,-145],[264,30],[172,312],[224,61],[546,-55],[108,-277],[-485,-147],[-96,-399],[-257,-153],[354,-291],[41,-328],[-247,-459],[108,-213],[-85,-233],[-412,-161],[159,-244],[-198,-53],[75,-194],[-554,-146],[-582,82],[-313,176],[-281,334],[-574,164],[-262,404],[-41,463],[-93,262],[415,203],[619,-161],[111,186],[736,19],[242,325],[-231,264],[-517,-104],[-275,2],[-201,133],[-408,1],[-45,-262],[-213,-88],[-326,-268],[-224,-77],[-355,92],[-287,-217],[-212,88],[-71,151],[-404,106],[-592,-24],[-281,28],[-305,226],[-326,-9],[-522,315]],[[58355,42646],[-429,-110],[-61,-263],[-595,-104],[-699,9],[-51,-134],[-570,-292],[-197,-210],[-549,-277],[-272,-76],[-486,-35]],[[54446,41154],[-178,210],[114,179],[-277,170],[-9,212],[-331,224],[19,198],[196,166],[-155,213],[95,182],[-31,372],[295,248],[-188,374],[-664,124],[-724,250],[-332,64],[-589,-39],[-421,-133],[-156,-175],[-354,-45]],[[50756,43948],[365,285],[86,553],[307,16],[323,99],[268,10],[462,-166],[183,-162],[656,-227],[675,-30],[624,-181],[347,-65],[454,-234],[301,-76],[560,-5],[241,-474],[-116,-138],[254,-146],[247,-19],[151,-178],[263,-125],[228,200],[688,-175],[32,-64]],[[46436,45598],[-81,-129],[-308,-152],[-265,299],[181,183],[-366,138],[104,183],[357,44],[166,-107],[-82,-169],[125,-230],[169,-60]],[[47978,45029],[79,-208],[-341,-81],[-104,107],[152,309],[214,-127]],[[46712,44596],[575,-43],[230,-96],[-144,-122],[-402,-8],[-453,93],[-86,161],[280,15]],[[54446,41154],[55,-146],[-43,-481],[119,-275],[284,-201]],[[54861,40051],[709,-532],[159,-198],[-117,-354],[115,-152],[-276,-48],[-167,-206],[-378,-264],[-207,21],[-241,-113],[-18,-114],[-252,-372],[-218,-30],[-613,-319],[-306,-117],[-186,-303],[-128,-50],[-164,-360],[-62,-548],[179,-60]],[[52690,35932],[-203,-147],[-525,-180],[-490,201],[62,336],[298,185],[176,258],[141,634],[-108,226],[-461,319],[209,211],[135,330],[287,498],[557,411],[167,219],[-131,238],[-18,484],[-58,302],[198,173],[-11,211],[-258,229],[277,231],[90,240],[-129,219],[84,362],[286,226],[-78,194],[151,330],[89,388],[-9,295],[-330,236],[-581,-16],[-265,99],[-713,95],[-218,-64],[-555,43]],[[63743,42590],[-268,-384],[-271,-214],[-109,-324],[-421,-32],[-451,-123],[-165,-193],[101,-169],[-143,-85],[-375,-21],[-410,-237],[186,-117],[-235,-256],[-606,-57],[-203,252],[-478,-1],[-185,-83],[-597,-12],[-364,150],[181,190],[-513,-54],[-249,-134],[-196,-209],[-476,-148],[-438,90],[-588,-18],[-722,215],[-887,-565]],[[58355,42646],[140,-216],[462,25],[1,247],[504,-104],[-21,143],[343,79],[41,166],[844,-12],[261,25],[398,-338],[381,-168],[101,-143],[-212,-178],[14,-239],[267,115],[-12,159],[753,4],[1123,379]],[[63743,42590],[348,166],[326,-25],[-286,-348],[257,-219],[-75,-193],[-236,-155],[169,-280],[-137,-189],[-350,-90],[79,-222],[-121,-110],[-14,-315],[195,-51],[158,-214],[-69,-101],[-428,-102],[-57,98],[-394,47],[-193,-172],[-87,-308],[-168,-98],[-391,-56],[-31,-218],[-377,36],[-108,-115],[-300,70],[-466,-183],[-516,-91],[-177,-259],[254,-289],[-42,-215],[-229,-257],[-298,-228],[-246,-37],[-405,99],[-304,-151],[-316,20],[-244,-196],[128,-96],[-200,-247],[-510,-51],[-541,56],[-505,-30],[-388,-82],[-608,-8],[-82,-63],[-466,3],[-315,-131],[-423,5],[-528,-260],[-553,-83],[-275,-211],[-297,-386],[-211,-123]],[[64792,42108],[197,267],[170,-100],[9,-176],[-376,9]],[[65328,41843],[-35,260],[289,-66],[-254,-194]],[[64275,40871],[58,267],[406,-99],[-464,-168]],[[66210,35411],[-885,201],[-329,152]],[[64996,35764],[-770,-29]],[[64226,35735],[-129,-144],[532,-330]],[[64629,35261],[-18,-219]],[[64611,35042],[101,-122],[-25,-262],[-542,-385]],[[64145,34273],[-267,-203]],[[63878,34070],[-407,-418],[-576,-529],[-337,-615],[-792,-579],[-1062,-730],[-838,-639],[-410,-213],[-940,-613]],[[58516,29734],[-145,-101],[-279,170],[-484,502],[-268,132],[-326,275],[95,241],[-272,66],[-232,-75],[-287,296],[142,131],[-12,351],[82,182],[-200,181],[553,373],[175,442],[579,65],[1124,-70],[402,5],[451,113],[787,408],[340,5],[418,96],[117,103],[28,299],[-210,415],[-1,550],[252,353],[-95,320],[-341,216],[-35,223],[-258,277],[292,176],[264,-24],[328,110],[19,101],[327,147],[156,341],[222,156],[177,675],[-194,67],[-11,355],[93,204],[839,170],[386,-52],[162,137],[418,209],[328,32],[336,163],[734,-104],[564,-217],[540,62],[776,-146],[255,-100],[167,82],[266,-101],[182,-502],[261,-113],[113,-150],[-623,-555],[-150,-511],[-375,-528],[-85,-192],[-278,-178],[-274,-43],[-379,-178],[-242,-360]],[[57407,35913],[-111,96],[77,165],[336,16],[119,150],[-162,305],[170,203],[250,94],[425,270],[233,72],[-1,205],[314,90],[132,128],[580,-238],[20,-355],[95,-266],[-440,-697],[-390,-190],[-199,-230],[-434,-25],[-642,-155],[-96,61],[-102,316],[-174,-15]],[[59550,35777],[101,214],[230,-137],[-331,-77]],[[71394,30849],[362,-136],[-16,-102],[-753,-334],[-403,-40],[-68,308],[207,137],[671,167]],[[79461,33994],[-206,-213],[111,-125],[-469,-37],[-343,-148],[27,316],[180,-26],[700,233]],[[76090,34121],[248,-52],[425,-229],[125,156],[256,-141],[-25,-148],[275,-30],[492,-243],[188,-41],[341,89],[336,-181],[239,-398],[-201,-48],[6,-247],[196,-267],[-428,-170],[283,-232],[359,-58],[48,-276],[-249,-210],[-593,-59],[-179,245],[-128,-10],[-402,-248],[-380,-61],[-103,-361],[-314,-12],[-103,-129],[-465,-46],[-309,-109],[-541,-36],[-422,69],[-891,-123],[-517,-4],[-884,71],[-542,127],[-649,99],[-110,184],[201,297],[-240,149],[-547,-2],[-48,200],[244,434],[128,34],[497,393],[358,35],[109,101],[413,62],[338,131],[447,19],[172,128],[188,492],[353,53],[426,223],[104,229],[521,1],[104,72],[756,-37],[94,115]],[[70220,40180],[-249,363],[-115,77],[216,166],[216,301],[279,-206],[119,-355],[342,-223],[-180,-173],[-628,50]],[[72264,39248],[-190,197],[506,324],[85,236],[-177,210],[20,157],[444,242],[119,288],[588,61],[150,-167],[-335,-298],[-20,-353],[-226,-158],[-259,-288],[505,-227],[76,-306],[-139,-280],[41,-199],[192,-204],[-251,-330],[45,-188],[-245,-169],[20,-403],[171,-429],[42,-238],[-99,-221],[94,-388],[-348,-501],[143,-175],[-120,-174],[-342,-181],[-285,-54],[-509,-196],[-290,-253],[-300,-88],[-362,23],[-325,-65],[-118,-191],[-570,-277],[-184,-232],[-53,-188],[-386,6],[-131,-167],[-143,-395],[104,-275],[-196,-335],[24,-127],[-406,-142],[-99,-218],[-232,-67],[-9,-303],[-231,-93],[-33,-268],[-366,-520],[-62,-215],[-318,-302],[-421,-223],[-456,-424],[-222,-73],[-334,31],[-40,379],[47,234],[260,741],[208,950],[272,182],[-16,300],[277,42],[1,320],[-326,114],[260,151],[193,203],[48,297],[313,138],[749,485],[90,236],[269,251],[317,199],[-29,362],[128,159],[472,189],[58,149],[241,62],[217,426],[277,98],[-117,149],[93,283],[187,51],[264,427],[401,337],[81,146],[303,64],[-1,134],[392,508],[367,609],[177,86],[73,183],[-83,149]],[[78283,37552],[-60,144],[292,235],[421,147],[-86,-249],[-221,-172],[-346,-105]],[[76142,36668],[-176,164],[215,138],[195,464],[276,-8],[576,-145],[319,199],[575,-118],[277,-140],[-123,-192],[-475,-98],[-560,-1],[-477,-66],[-622,-197]],[[72636,34545],[-254,55],[-80,178],[141,162],[442,159],[291,-124],[-264,-330],[-276,-100]],[[73544,34538],[-142,111],[451,138],[-167,-240],[-142,-9]],[[66210,35411],[-103,-266],[57,-379],[-178,-305],[-331,-349],[-10,-266],[-432,-508],[-118,-267],[-155,-39],[-319,-269],[-83,-200],[-285,-183],[-41,-442],[87,-267],[13,-304],[83,-123],[-123,-335],[-382,-17],[-44,-140],[260,-279],[-127,-189],[432,-90],[230,-357],[440,-87],[82,-246],[341,-349],[420,-186],[35,-249],[-179,-395],[-245,-297],[-606,-414],[-103,-165],[-231,-5],[-226,-136],[-479,-105],[-394,78],[-143,-91],[-466,-83],[-828,293],[-578,845],[-10,296],[-139,361],[-268,27],[-319,159],[-1008,126],[-377,2],[-530,262],[-354,133],[40,123]],[[63878,34070],[267,203]],[[64611,35042],[18,219]],[[64226,35735],[770,29]],[[69073,28729],[336,-118],[251,-431],[-132,-124],[186,-196],[287,-96],[-214,-146],[-481,17],[-116,-132],[-379,-42],[-750,259],[-606,279],[150,256],[417,-62],[138,71],[395,15],[354,226],[164,224]],[[86789,47149],[155,-80],[215,140],[298,-75],[388,-12],[303,-126],[628,-402],[-197,-122],[-300,-52],[72,-117],[-356,-74],[-8,-136],[427,-90],[228,-277],[-493,-346],[-330,-408],[-20,-202],[143,-174],[8,-254],[393,-183],[-172,-241],[141,-147],[147,-332],[-337,-80],[112,-140],[-238,-164],[35,-150],[329,-27],[-77,-136],[122,-245],[378,-242],[-79,-173],[323,-162],[99,-147],[582,-275],[278,-60],[6,-129],[-268,-217],[-351,-101],[-256,-155],[-144,-249],[10,-162],[571,-84],[322,132],[455,-22],[385,-473],[497,-349],[109,-254],[-236,-49],[-524,341],[117,230],[-346,51],[-50,158],[-640,-161],[-373,75],[-198,142],[-281,-171],[-157,-190],[-380,188],[-81,-131],[-511,-126],[-147,144],[-341,89],[-434,-18],[-218,162],[-525,-126]],[[85997,39983],[-3,1168],[650,523],[-243,163],[-672,146],[-77,154],[93,279],[-124,214],[-511,81],[172,245],[27,215],[388,-70],[675,300],[-128,505],[-18,435],[-360,562],[-430,525],[-527,36],[-168,405],[21,641],[292,170],[132,473]],[[85186,47153],[444,401],[422,-130],[237,-227],[20,-146],[480,98]],[[90604,38129],[317,-93],[-88,-186],[51,-193],[670,-45],[306,-56],[-21,-204],[-576,-51],[-311,181],[-286,45],[-388,218],[5,191],[321,193]],[[85243,36759],[-312,-55],[-598,-225],[-86,-183],[-655,-38],[-276,-65],[-851,-33],[-171,-184],[-121,-493],[235,-280],[96,-433],[-156,-100],[-329,-51],[-429,-303],[-695,-119]],[[80895,34197],[145,143],[-8,200],[250,374],[-60,184],[-187,148],[-358,128],[-101,177],[63,239],[-7,343],[234,58],[167,190],[9,452],[365,286],[-85,129],[-11,311],[-112,274],[-235,281],[-549,368],[-251,368],[-309,75],[-583,381],[-616,-218],[121,-77],[8,-231],[-342,-363],[-394,-24],[-290,158],[-275,246],[-379,-107],[-135,66],[346,391],[-62,258],[-240,198],[104,260],[139,106],[-188,399],[5,246],[142,74],[-231,232],[158,121],[-526,147],[10,284],[-177,182],[-360,628],[-44,216],[329,205],[858,-481],[836,-614],[-121,370],[547,-55],[146,-73],[14,-201],[134,-312],[353,-226],[301,10],[239,-71],[595,42],[354,163],[377,98],[206,173],[231,82],[17,167],[667,140],[168,-92],[616,20],[30,-128],[292,-22],[-186,-510],[24,-271],[319,-151],[316,-321],[-190,-238],[178,-144],[-34,-219],[193,-220],[7,-428],[-60,-385],[-153,-165],[-165,-364],[65,-542],[165,-181],[363,-112],[284,0],[273,-100],[-27,-219],[345,-157],[291,-207]],[[84088,49644],[123,-143],[-5,-218],[-462,135],[88,202],[256,24]],[[84060,49019],[98,-98],[-363,-103],[-320,146],[-17,383],[332,-319],[270,-9]],[[78120,49028],[311,-198],[-217,-39],[-94,237]],[[85186,47153],[-538,4],[-832,-236],[-631,-108],[-770,33],[-443,-591],[-267,227],[122,268],[-948,275],[-443,97],[-333,-201],[-528,-105],[-1138,538],[-409,158],[-526,-357],[-714,-9]],[[76788,47146],[-197,204],[-54,205],[81,174],[-196,316],[-411,315],[3,234],[-205,176],[177,236],[387,-147],[124,-147],[296,104],[357,-3],[691,-134],[366,24],[177,-89],[520,91],[739,-160],[1182,53],[561,152],[292,-76],[290,24],[472,210],[522,71],[207,-169],[409,83],[168,-211],[217,81],[260,-45],[120,286],[240,-115],[430,63],[496,-229],[421,-148],[307,-220],[222,-59],[-24,-142],[228,-293],[-255,-373],[381,-339]],[[74646,47937],[-173,286],[319,1],[288,-269],[-192,-162],[-242,144]],[[75638,48244],[347,-283],[61,-174],[-166,-138],[-219,278],[-23,317]],[[85997,39983],[-118,-226],[-269,76],[-156,529],[-124,68],[-53,243],[-270,255],[-276,55],[-824,-19],[-413,-82],[-262,174],[-43,184],[185,157],[-54,404],[-889,333],[-522,-45],[-210,92],[33,323],[470,234],[314,51],[404,-29],[81,151],[286,127],[40,134],[-159,176],[375,221],[360,288],[-326,179],[-550,-69],[-424,-148],[-271,46],[-376,389],[-177,22],[-212,177],[-149,-12],[-246,233],[-399,278],[-384,113],[-193,195],[39,168],[-423,245],[-571,140],[-497,-43],[-750,331],[-242,249],[-621,260],[-343,536]],[[74905,45597],[-248,140],[172,142],[439,-7],[-363,-275]],[[76149,44755],[-175,166],[553,238],[24,-130],[-402,-274]],[[77705,44680],[-304,51],[120,184],[337,-27],[65,-158],[-218,-50]],[[80408,43596],[363,34],[126,-164],[495,-263],[-150,-141],[508,-188],[-135,-373],[-606,287],[-44,140],[222,64],[-641,393],[-138,211]],[[82005,43054],[-202,129],[-161,233],[340,90],[131,-113],[88,-308],[-196,-31]],[[85243,36759],[148,-245],[-245,-160],[275,-370],[-116,-237],[214,-232],[224,-104],[182,76],[293,-586],[-195,-278],[-350,-52],[-869,179],[-24,-389],[102,-238],[-130,-61],[-441,328],[-268,442],[-183,131],[-158,362],[-219,78],[-353,-26],[116,-421],[41,-400],[-82,-185],[66,-169],[214,-187],[92,-336],[108,-79],[-45,-376],[-371,41],[-476,283],[-341,58],[-122,175],[-489,86],[-418,-17],[-499,180],[-29,167]],[[85551,33073],[-237,242],[-409,95],[-257,334],[112,304],[417,-181],[448,-25],[244,-301],[107,-238],[370,-301],[-72,-166],[264,-249],[-99,-74],[-348,3],[-168,292],[-157,9],[-215,256]],[[76450,43922],[-316,147],[61,138],[490,17],[29,-185],[-264,-117]],[[77133,42937],[-307,349],[-261,80],[379,141],[461,82],[501,-1],[485,-157],[243,-27],[315,-364],[177,-309],[344,-141],[-110,-345],[-339,-101],[-672,16],[-474,-43],[-217,130],[-519,443],[-6,247]],[[68517,22362],[-200,-37],[-280,-28],[-356,-10],[-341,-151],[-330,12],[-671,-84],[-278,105],[-662,-6],[-154,145],[-232,-125],[-51,-337],[-237,-73],[-5,-192],[-318,-202],[196,-178],[-280,-171],[321,-32],[-116,-226],[-205,-51],[-752,-78],[-947,-343],[-143,-110],[-571,17]],[[61905,20207],[-6,99],[-600,27],[-398,65],[-807,-6],[-243,-355],[-421,-47],[-539,295],[-312,-94],[-204,57],[-229,-214],[-786,-60],[-58,-156],[-325,85],[-402,-20],[-320,-400],[370,-222],[-489,-92],[-176,-179],[-409,-765],[-488,-593],[121,-31]],[[55184,17601],[-351,-140],[-208,-206],[-294,-83],[-292,-397],[-7,-128],[217,-393],[-357,-96],[-103,-291],[-430,-235],[-192,-193],[-1336,1],[-390,22]],[[51441,15462],[141,217],[505,358],[358,88],[58,107],[495,58],[41,168],[-282,78],[-58,189],[176,81],[125,397],[-54,66],[210,264],[-37,153],[347,92],[84,140],[275,74],[-356,203],[310,296],[-19,189],[-177,296],[-285,130],[847,775],[352,94],[289,260],[-73,207],[444,235],[533,132],[403,146],[438,32],[659,154],[476,-46],[114,64],[463,13],[286,131],[366,89],[346,301],[235,-253],[475,-59],[783,47],[615,137],[431,17],[479,234],[365,120],[50,303],[-268,65],[-325,283],[390,75],[156,191],[-123,311],[431,293],[28,146],[388,263],[1440,113],[803,-123],[269,59],[224,174],[337,544],[376,-69],[283,225],[-235,80],[-173,176],[89,141],[482,-73],[401,-212],[155,-252],[245,-119],[420,-29],[30,-712]],[[68526,23656],[16,-831]],[[68513,22512],[4,-150]],[[68517,22362],[-6,-558]],[[68553,21191],[-10,-346]],[[68543,20845],[414,6]],[[69117,20899],[271,-155],[-27,-261],[100,-41]],[[69461,20442],[-153,-167]],[[69603,20212],[-44,-280]],[[69559,19932],[-266,-52]],[[69293,19880],[-106,-135]],[[69187,19745],[-262,-85],[-258,113],[-303,-22],[-864,-222],[-347,29],[0,-326],[464,-129],[112,-97],[-4,-282],[-198,-300],[-833,-191],[120,-219],[-397,80],[-189,-193],[467,-125],[-26,-222],[158,-143],[418,-100],[125,-517],[-240,29],[-197,-101],[-253,121],[-62,136],[-424,84],[-126,180],[-383,155],[157,400],[-599,-14],[-157,50],[-468,-201],[167,-127],[-332,-87],[-49,164],[-472,105],[-141,266],[613,156],[355,39],[-219,286],[-481,158],[181,169],[-290,212],[-322,-162]],[[63628,18812],[11,424],[200,121],[-290,226],[-640,-56],[-329,79],[1,127],[-301,144],[-450,77],[75,253]],[[56026,17340],[-79,-203],[115,-146],[366,-91],[-193,-239],[-295,-185],[-558,23],[0,-263],[-129,-293],[-310,-271],[127,-175],[-161,-141],[74,-192],[-475,-219],[69,-75],[-212,-338],[-84,-323],[-349,-275],[-387,-107],[-901,190],[-499,200],[-305,22],[-259,202],[-44,180],[-222,379],[126,462]],[[55184,17601],[177,81],[226,-236],[439,-106]],[[54457,14016],[-60,70],[141,253],[209,120],[438,54],[130,-157],[-190,-131],[-231,1],[-437,-210]],[[63628,18812],[-443,-218],[-135,-208],[48,-258],[-95,-240],[-188,-124],[-44,-285],[-562,4],[-290,340],[-335,24],[-39,-189],[-297,-82],[216,-156],[-298,-154],[-257,-14],[-53,214],[-389,166],[136,110],[350,-6],[-53,237],[-320,226],[28,244],[-128,238],[198,174],[80,283],[-793,92],[-170,128],[-857,-37],[-326,-164],[-574,-110],[-225,-254],[-440,-249],[-94,-194],[-288,-88],[-92,-233],[470,4],[24,-205],[-250,-133],[-122,119],[-318,-191],[-351,-79],[-326,-204]],[[60987,16227],[-272,127],[-29,207],[-153,107],[197,487],[177,69],[372,-163],[-1,-145],[270,-52],[20,289],[439,3],[417,-350],[-287,15],[-211,-77],[-218,-250],[-563,-77],[-158,-190]]],"transform":{"scale":[0.00009656624436244381,0.00016184953825538236],"translate":[116.942246585,4.651220240000043]},"objects":{"prov_raw":{"type":"GeometryCollection","geometries":[{"arcs":[[0,1,2,3]],"type":"Polygon","properties":{"province":"Ilocos Norte"}},{"arcs":[[4,5,6,7,8,9,-1]],"type":"Polygon","properties":{"province":"Ilocos Sur"}},{"arcs":[[10,11,12,-9]],"type":"Polygon","properties":{"province":"La Union"}},{"arcs":[[[13]],[[-12,14,15,16,17,18,19,20,21,22]],[[23]]],"type":"MultiPolygon","properties":{"province":"Pangasinan"}},{"arcs":[[24,25,26,27,28,29,30,31,32,33,34,35,36,37,38,39,40,41,42,43,44,45,46,47,48,49,50,51,52,53,54,55,56,57,58,59,60,61,62,63,64,65,66,67,68,69,70,71,72,73]],"type":"Polygon","properties":{"province":"Bukidnon"}},{"arcs":[[74]],"type":"Polygon","properties":{"province":"Camiguin"}},{"arcs":[[-73,75,76,77,78,79,80,81,82,83,84,85,86,87,88,89,90,91,92,93,94,95,96,97,98,99,100,101,102,103,104,105,106,107,108,109,110]],"type":"Polygon","properties":{"province":"Lanao del Norte"}},{"arcs":[[111,112,113,114,115,116,117,118,119]],"type":"Polygon","properties":{"province":"Misamis Occidental"}},{"arcs":[[-74,-111,120,121,122,123,124,125,126,127,128,129,130,131]],"type":"Polygon","properties":{"province":"Misamis Oriental"}},{"arcs":[[[132,133,134,-49,135,136,-46,137,-44,138,139]],[[140]],[[141]]],"type":"MultiPolygon","properties":{"province":"Davao del Norte"}},{"arcs":[[142,143,144,145,146,147,148,149,150,151,152,153,154,155,-50,-135]],"type":"Polygon","properties":{"province":"Davao del Sur"}},{"arcs":[[156,157,158,159,160,161]],"type":"Polygon","properties":{"province":"Davao Oriental"}},{"arcs":[[-157,162,-133,163,164,165,166,167,168,169,170,171,172,173,174,175,176,177,178]],"type":"Polygon","properties":{"province":"Davao de Oro"}},{"arcs":[[[-144,179,180,181,182,183,184,185,186,187]],[[188]],[[189]]],"type":"MultiPolygon","properties":{"province":"Davao Occidental"}},{"arcs":[[[190,191,192,193,194,195,196,197,198,199,200,201,202,203,204,205,206,207,208,209,210,-54,211,-52,212,213,214,215,216,217,218]],[[223,224,225]],[[226,227,228,229],[219,220,221,222]],[[230,231,232]],[[233,234]],[[235,236,237]],[[238,239,240]],[[241,242,243,244,245,246]],[[247,248]],[[249,250,251,252]],[[253,254,255]]],"type":"MultiPolygon","properties":{"province":"Cotabato"}},{"arcs":[[256,257,258,259,260]],"type":"Polygon","properties":{"province":"South Cotabato"}},{"arcs":[[-191,261,262,-261,263,264,265,266,267,268,269,270,271,272,273,274,275,276,277]],"type":"Polygon","properties":{"province":"Sultan Kudarat"}},{"arcs":[[[-258,278,279,280,281,282,283,284,285,286,287,288,289,290]],[[291,-264,-260]]],"type":"MultiPolygon","properties":{"province":"Sarangani"}},{"arcs":[[292,293,294,295,296,297,298,299,300,301,302,303]],"type":"Polygon","properties":{"province":"Metro Manila"}},{"arcs":[[304,305,306,307,308]],"type":"Polygon","properties":{"province":"Abra"}},{"arcs":[[309,310,311,312,313]],"type":"Polygon","properties":{"province":"Benguet"}},{"arcs":[[314,315,-311,316]],"type":"Polygon","properties":{"province":"Ifugao"}},{"arcs":[[317,-305,318,319]],"type":"Polygon","properties":{"province":"Kalinga"}},{"arcs":[[320,-317,-310,321,-306,-318]],"type":"Polygon","properties":{"province":"Mountain Province"}},{"arcs":[[-319,-309,322,323,324]],"type":"Polygon","properties":{"province":"Apayao"}},{"arcs":[[325,326,327,328,329,330,-125,331,332,-122,333,334,335,336]],"type":"Polygon","properties":{"province":"Agusan del Norte"}},{"arcs":[[-159,337,-179,338,339,-176,340,-174,341,342,343,344,345,-168,346,-166,347,-164,-140,348,349,350,-40,351,352,-37,353,-35,354,355,356,357,-30,358,359,360,361,362,363,-131,364,365,-327,366]],"type":"Polygon","properties":{"province":"Agusan del Sur"}},{"arcs":[[[367]],[[368]],[[369]],[[370,-337,371,-335,372]],[[373]],[[374]],[[375]],[[376]]],"type":"MultiPolygon","properties":{"province":"Surigao del Norte"}},{"arcs":[[-367,-326,-371,377,378,379]],"type":"Polygon","properties":{"province":"Surigao del Sur"}},{"arcs":[[380]],"type":"Polygon","properties":{"province":"Dinagat Islands"}},{"arcs":[[381]],"type":"Polygon","properties":{"province":"Marinduque"}},{"arcs":[[[382]],[[383]],[[384,385]],[[386]],[[387]]],"type":"MultiPolygon","properties":{"province":"Occidental Mindoro"}},{"arcs":[[-385,388]],"type":"Polygon","properties":{"province":"Oriental Mindoro"}},{"arcs":[[[389]],[[390]],[[391]],[[392]],[[393]],[[394]],[[395]],[[396]],[[397]],[[398]],[[399]],[[400]],[[401]],[[402]],[[403]],[[404]],[[405]],[[406]],[[407]]],"type":"MultiPolygon","properties":{"province":"Palawan"}},{"arcs":[[[408]],[[409]],[[410]],[[411]],[[412]],[[413]],[[414]]],"type":"MultiPolygon","properties":{"province":"Romblon"}},{"arcs":[[[417]],[[418]],[[419]]],"type":"MultiPolygon","properties":{"province":"Basilan"}},{"arcs":[[420,421,422,-102,423,-100,424,425,-97,426,427,-94,428,-92,429,430,431,432,433,-86,434,435,-83,436,437,438,439,-78,440,441,442,443,444,-68,445,446,447,448,449,-62,450,451,452,453,454,455,456,457,458,-208]],"type":"Polygon","properties":{"province":"Lanao del Sur"}},{"arcs":[[[459]],[[460]],[[461]],[[462]],[[463]],[[464]],[[465]],[[466]],[[467]],[[468]],[[469]],[[470]],[[471]],[[472]],[[473]],[[474]]],"type":"MultiPolygon","properties":{"province":"Sulu"}},{"arcs":[[[475]],[[476]],[[477]],[[478]],[[479]],[[480]],[[481]],[[482]],[[483]]],"type":"MultiPolygon","properties":{"province":"Tawi-Tawi"}},{"arcs":[[[-224,484,485,-234,486,-236,487,-244,488,489,490,-421,491,492]],[[493]]],"type":"MultiPolygon","properties":{"province":"Maguindanao del Norte"}},{"arcs":[[494,-239,495,496,497,498,499,500,501,502,503,504,505,506,507,508,509,510,511,-267,512,513,-490,514,-242,515,-252,516,-250,517,-254,518,-248,519,-231]],"type":"Polygon","properties":{"province":"Maguindanao del Sur"}},{"arcs":[[[520]],[[521]],[[522]]],"type":"MultiPolygon","properties":{"province":"Batanes"}},{"arcs":[[[523]],[[524]],[[525]],[[526]],[[527]],[[528,529,530,531,-3,532]],[[533]]],"type":"MultiPolygon","properties":{"province":"Cagayan"}},{"arcs":[[534,535,536,537,538,539,-529]],"type":"Polygon","properties":{"province":"Isabela"}},{"arcs":[[540,541,542,543,544,545,546,547,548,549,-538]],"type":"Polygon","properties":{"province":"Nueva Vizcaya"}},{"arcs":[[550,551,552,553,-541,-537]],"type":"Polygon","properties":{"province":"Quirino"}},{"arcs":[[554,555,556]],"type":"Polygon","properties":{"province":"Bataan"}},{"arcs":[[557,558,559,560,561,562,-294,563,564,565]],"type":"Polygon","properties":{"province":"Bulacan"}},{"arcs":[[566,-566,567,568,569,-17,570,-546,571,572]],"type":"Polygon","properties":{"province":"Nueva Ecija"}},{"arcs":[[-568,-565,573,-557,574,575]],"type":"Polygon","properties":{"province":"Pampanga"}},{"arcs":[[-569,-576,576,-21,577,-19]],"type":"Polygon","properties":{"province":"Tarlac"}},{"arcs":[[-577,-575,-556,578,-22]],"type":"Polygon","properties":{"province":"Zambales"}},{"arcs":[[-558,-567,579,-543,580,-553,581,-551,-536,582,583,584,585,586]],"type":"Polygon","properties":{"province":"Aurora"}},{"arcs":[[[587]],[[588]],[[589,590,591,592]]],"type":"MultiPolygon","properties":{"province":"Batangas"}},{"arcs":[[593,-590,594,595,-302,596]],"type":"Polygon","properties":{"province":"Cavite"}},{"arcs":[[-591,-594,597,598,599,600]],"type":"Polygon","properties":{"province":"Laguna"}},{"arcs":[[[-592,-601,601,602,-559,-587,603,-585,604,605,606,607,608,609,610,611,612,613,614,615,616,617]],[[618]],[[619]],[[620]],[[621]],[[622]],[[623]]],"type":"MultiPolygon","properties":{"province":"Quezon"}},{"arcs":[[[-600,624,-299,625,626,627,628,629,-561,-602]],[[630]]],"type":"MultiPolygon","properties":{"province":"Rizal"}},{"arcs":[[[631,632,633,634,635,636]],[[637]],[[638]],[[639]],[[640]]],"type":"MultiPolygon","properties":{"province":"Albay"}},{"arcs":[[641,642,643,644,-611,645,-609,646,-607,647]],"type":"Polygon","properties":{"province":"Camarines Norte"}},{"arcs":[[[648]],[[649]],[[-637,650,-635,651,-617,652,-615,-642,653]]],"type":"MultiPolygon","properties":{"province":"Camarines Sur"}},{"arcs":[[[654]],[[655]]],"type":"MultiPolygon","properties":{"province":"Catanduanes"}},{"arcs":[[[656]],[[657]],[[658]]],"type":"MultiPolygon","properties":{"province":"Masbate"}},{"arcs":[[-633,659]],"type":"Polygon","properties":{"province":"Sorsogon"}},{"arcs":[[660,661,662]],"type":"Polygon","properties":{"province":"Aklan"}},{"arcs":[[[663]],[[664]],[[665]],[[666,667,668,-662]]],"type":"MultiPolygon","properties":{"province":"Antique"}},{"arcs":[[669,-667,-661,670]],"type":"Polygon","properties":{"province":"Capiz"}},{"arcs":[[[-668,-670,671]],[[672]],[[673]],[[674]]],"type":"MultiPolygon","properties":{"province":"Iloilo"}},{"arcs":[[675,676,677,678,679,680,681,682]],"type":"Polygon","properties":{"province":"Negros Occidental"}},{"arcs":[[[683]],[[684]]],"type":"MultiPolygon","properties":{"province":"Guimaras"}},{"arcs":[[[685]],[[686]],[[687]]],"type":"MultiPolygon","properties":{"province":"Bohol"}},{"arcs":[[[688]],[[689]],[[690]],[[691]],[[692]],[[693]]],"type":"MultiPolygon","properties":{"province":"Cebu"}},{"arcs":[[694,-682,695,-680,696,-678,697,-676]],"type":"Polygon","properties":{"province":"Negros Oriental"}},{"arcs":[[698]],"type":"Polygon","properties":{"province":"Siquijor"}},{"arcs":[[[699,700,701]],[[702]]],"type":"MultiPolygon","properties":{"province":"Eastern Samar"}},{"arcs":[[703,704]],"type":"Polygon","properties":{"province":"Leyte"}},{"arcs":[[[705]],[[706]],[[707]],[[-702,708,709]],[[710]],[[711]]],"type":"MultiPolygon","properties":{"province":"Northern Samar"}},{"arcs":[[[-701,712,-709]],[[713]],[[714]],[[715]],[[716]],[[717]]],"type":"MultiPolygon","properties":{"province":"Samar"}},{"arcs":[[[718,-704]],[[719]]],"type":"MultiPolygon","properties":{"province":"Southern Leyte"}},{"arcs":[[[720]],[[721]]],"type":"MultiPolygon","properties":{"province":"Biliran"}},{"arcs":[[722,723,724,725,-119,726,-117,727]],"type":"Polygon","properties":{"province":"Zamboanga del Norte"}},{"arcs":[[[728,-115,729,730,-112,731,732,-108,733,734,735,736,737,-723]],[[738,-725,739]],[[740]]],"type":"MultiPolygon","properties":{"province":"Zamboanga del Sur"}},{"arcs":[[[-738,741,-740,-724]],[[742]]],"type":"MultiPolygon","properties":{"province":"Zamboanga Sibugay"}}]}}}